Name of Initiative,Organization Name,Notes,Location 1,Street Address,City,State,State Based,Phase 1,Phase 2,Facebook,Twitter,Youtube,Website,Category,MSA_Name,Unique ID,Map Display
Enhancing Oncology Model,The Oncology Institute CA a Professional Corporation,,"399 E. Highland Ave., Suite 501, San Bernardino, CA (34.135774, -117.27715)","399 E. Highland Ave., Suite 501",San Bernardino,CA,FALSE,,,,,,,Disease-Specific & Episode-Based Models,,1009,
Enhancing Oncology Model,The Oncology Institute CA a Professional Corporation,,"4646 Brockton Ave., Suite 203, Riverside, CA (33.975671, -117.386171)","4646 Brockton Ave., Suite 203",Riverside,CA,FALSE,,,,,,,Disease-Specific & Episode-Based Models,,1010,
Enhancing Oncology Model,The Oncology Institute CA a Professional Corporation,,"2876 Sycamore Dr., Suite 201, Simi Valley, CA (34.287877, -118.743237)","2876 Sycamore Dr., Suite 201",Simi Valley,CA,FALSE,,,,,,,Disease-Specific & Episode-Based Models,,1011,
Enhancing Oncology Model,The Oncology Institute CA a Professional Corporation,,"999 N. Tustin Ave., Suite 212, Santa Ana, CA (33.753018, -117.832557)","999 N. Tustin Ave., Suite 212",Santa Ana,CA,FALSE,,,,,,,Disease-Specific & Episode-Based Models,,1012,
Enhancing Oncology Model,The Oncology Institute CA a Professional Corporation,,"31515 Rancho Pueblo Rd., Suite 202, Temecula, CA (33.4789, -117.110576)","31515 Rancho Pueblo Rd., Suite 202",Temecula,CA,FALSE,,,,,,,Disease-Specific & Episode-Based Models,,1013,
Enhancing Oncology Model,The Oncology Institute CA a Professional Corporation,,"425 Haaland Dr., Suite 103, Thousand Oaks, CA (34.175686, -118.869305)","425 Haaland Dr., Suite 103",Thousand Oaks,CA,FALSE,,,,,,,Disease-Specific & Episode-Based Models,,1014,
Enhancing Oncology Model,The Oncology Institute CA a Professional Corporation,,"1060 E. Foothill Blvd., Suite 102, Upland, CA (34.106678, -117.637122)","1060 E. Foothill Blvd., Suite 102",Upland,CA,FALSE,,,,,,,Disease-Specific & Episode-Based Models,,1015,
Enhancing Oncology Model,The Oncology Institute CA a Professional Corporation,,"10001 S. Eastern Ave., Suite 301, Henderson, NV (36.005378, -115.114385)","10001 S. Eastern Ave., Suite 301",Henderson,NV,FALSE,,,,,,,Disease-Specific & Episode-Based Models,,1016,
Enhancing Oncology Model,The Oncology Institute CA a Professional Corporation,,"21605 Hawthorne Blvd., Suite 200, Torrance, CA (33.832025, -118.353419)","21605 Hawthorne Blvd., Suite 200",Torrance,CA,FALSE,,,,,,,Disease-Specific & Episode-Based Models,,1017,
Enhancing Oncology Model,The Oncology Institute CA a Professional Corporation,,"23861 McBean Pkwy, Suite E28, Valencia, CA (34.396357, -118.554757)","23861 McBean Pkwy, Suite E28",Valencia,CA,FALSE,,,,,,,Disease-Specific & Episode-Based Models,,1018,
Enhancing Oncology Model,The Oncology Institute CA a Professional Corporation,,"12370 Hesperia Rd., Suite 17, Victorville, CA (34.476333, -117.291465)","12370 Hesperia Rd., Suite 17",Victorville,CA,FALSE,,,,,,,Disease-Specific & Episode-Based Models,,1019,
Enhancing Oncology Model,The Oncology Institute CA a Professional Corporation,,"8135 S. Painter Ave., Suite 103, Whittier, CA (33.965783, -118.033071)","8135 S. Painter Ave., Suite 103",Whittier,CA,FALSE,,,,,,,Disease-Specific & Episode-Based Models,,1020,
Enhancing Oncology Model,The Oncology Institute CA a Professional Corporation,,"2067 W. Vista Way, Suite 295, Vista, CA (33.185814, -117.286565)","2067 W. Vista Way, Suite 295",Vista,CA,FALSE,,,,,,,Disease-Specific & Episode-Based Models,,1021,
Enhancing Oncology Model,The Oncology Institute CA a Professional Corporation,,"7320 Woodlake Ave., Suite 160, West Hills, CA (34.202771, -118.631973)","7320 Woodlake Ave., Suite 160",West Hills,CA,FALSE,,,,,,,Disease-Specific & Episode-Based Models,,1022,
Enhancing Oncology Model,The Oncology Institute CA a Professional Corporation,,"1250 S. Sunset Blvd., Suite 101, West Covina, CA (34.06043, -117.945861)","1250 S. Sunset Blvd., Suite 101",West Covina,CA,FALSE,,,,,,,Disease-Specific & Episode-Based Models,,1023,
Enhancing Oncology Model,The Oncology Institute CA a Professional Corporation,,"6450 Medical Center St., Las Vegas, NV (36.071129, -115.29162)",6450 Medical Center St.,Las Vegas,NV,FALSE,,,,,,,Disease-Specific & Episode-Based Models,,1024,
Enhancing Oncology Model,The Oncology Institute CA a Professional Corporation,,"2904 W. Horizon Ridge Pkwy, Suite 200, Henderson, NV (35.999865, -115.113244)","2904 W. Horizon Ridge Pkwy, Suite 200",Henderson,NV,FALSE,,,,,,,Disease-Specific & Episode-Based Models,,1025,
Enhancing Oncology Model,The Oncology Institute CA a Professional Corporation,,"5380 S. Rainbow Blvd., Suite 210, Las Vegas, NV (36.091123, -115.240983)","5380 S. Rainbow Blvd., Suite 210",Las Vegas,NV,FALSE,,,,,,,Disease-Specific & Episode-Based Models,,1026,
Enhancing Oncology Model,The Oncology Institute CA a Professional Corporation,,"2911 N. Tenaya Way, Suite 210, Las Vegas, NV (36.213898, -115.250207)","2911 N. Tenaya Way, Suite 210",Las Vegas,NV,FALSE,,,,,,,Disease-Specific & Episode-Based Models,,1027,
Enhancing Oncology Model,The Oncology Institute CA a Professional Corporation,,"6565 E. Carondelet Dr., Suite 285, Tucson, AZ (32.225974, -110.852785)","6565 E. Carondelet Dr., Suite 285",Tucson,AZ,FALSE,,,,,,,Disease-Specific & Episode-Based Models,,1028,
Enhancing Oncology Model,The Oncology Institute CA a Professional Corporation,,"1707 W. St. Marys Rd., Suite 275, Tucson, AZ (32.227354, -111.002096)","1707 W. St. Marys Rd., Suite 275",Tucson,AZ,FALSE,,,,,,,Disease-Specific & Episode-Based Models,,1029,
Enhancing Oncology Model,The Oncology Institute CA a Professional Corporation,,"275 W. Continental Rd., Suite 133, Green Valley, AZ (31.851185, -110.997796)","275 W. Continental Rd., Suite 133",Green Valley,AZ,FALSE,,,,,,,Disease-Specific & Episode-Based Models,,1030,
Enhancing Oncology Model,The Oncology Institute CA a Professional Corporation,,"1521 E. Tangerine Rd., Suite 331, Oro Valley, AZ (32.42814, -110.950274)","1521 E. Tangerine Rd., Suite 331",Oro Valley,AZ,FALSE,,,,,,,Disease-Specific & Episode-Based Models,,1031,
Enhancing Oncology Model,"Sierra Hematology & Oncology, Medical Center, A Professional Corporation",,"6555 Coyle Ave Suite 301, Carmichael, CA (38.66859, -121.311805)",6555 Coyle Ave Suite 301,Carmichael,CA,FALSE,,,,,,,Disease-Specific & Episode-Based Models,,1032,
Enhancing Oncology Model,"Sierra Hematology & Oncology, Medical Center, A Professional Corporation",,"3939 J street Suite 360, Sacramento, CA (38.570213, -121.45374)",3939 J street Suite 360,Sacramento,CA,FALSE,,,,,,,Disease-Specific & Episode-Based Models,,1033,
Enhancing Oncology Model,"Sierra Hematology & Oncology, Medical Center, A Professional Corporation",,"1580 Creekside Drive, Suite 230, Folsom, CA (38.66891, -121.148029)","1580 Creekside Drive, Suite 230",Folsom,CA,FALSE,,,,,,,Disease-Specific & Episode-Based Models,,1034,
Enhancing Oncology Model,"Sierra Hematology & Oncology, Medical Center, A Professional Corporation",,"8100 Bruceville Road, Sacramento, CA (38.460781, -121.417792)",8100 Bruceville Road,Sacramento,CA,FALSE,,,,,,,Disease-Specific & Episode-Based Models,,1035,
Enhancing Oncology Model,"Sierra Hematology & Oncology, Medical Center, A Professional Corporation",,"576 N, Sunrise Ave Suite 210, Roseville, CA (38.758607, -121.254458)","576 N, Sunrise Ave Suite 210",Roseville,CA,FALSE,,,,,,,Disease-Specific & Episode-Based Models,,1036,
Enhancing Oncology Model,"The Oncology Institute FL, LLC",,"6766 West Sunrise Blvd., Suite 101, Plantation, FL (26.14243, -80.239405)","6766 West Sunrise Blvd., Suite 101",Plantation,FL,FALSE,,,,,,,Disease-Specific & Episode-Based Models,,1037,
Enhancing Oncology Model,"The Oncology Institute FL, LLC",,"6405 North Federal Hwy, Suite 300B, Fort Lauderdale, FL (26.208323, -80.110881)","6405 North Federal Hwy, Suite 300B",Fort Lauderdale,FL,FALSE,,,,,,,Disease-Specific & Episode-Based Models,,1038,
Enhancing Oncology Model,Torrance Health Association,,"3285 Skypark Drive, Torrance, CA (33.809394, -118.344693)",3285 Skypark Drive,Torrance,CA,FALSE,,,,,,,Disease-Specific & Episode-Based Models,,1039,
Enhancing Oncology Model,"Northwest Medical Specialties, PLLC",,"1624 S. I Street Suite 102, Tacoma, WA (47.246235, -122.447852)",1624 S. I Street Suite 102,Tacoma,WA,FALSE,,,,,,,Disease-Specific & Episode-Based Models,,1040,
Enhancing Oncology Model,"Northwest Medical Specialties, PLLC",,"3920 Capital Mall Dr. Suite 100, Olympia, WA (47.04234, -122.952206)",3920 Capital Mall Dr. Suite 100,Olympia,WA,FALSE,,,,,,,Disease-Specific & Episode-Based Models,,1041,
Enhancing Oncology Model,"Northwest Medical Specialties, PLLC",,"10004 204th Ave E., Bonney Lake, WA (47.165505, -122.15705)",10004 204th Ave E.,Bonney Lake,WA,FALSE,,,,,,,Disease-Specific & Episode-Based Models,,1042,
Enhancing Oncology Model,"Northwest Medical Specialties, PLLC",,"2940 S. Meridian Suite 100, Puyallup, WA (47.162507, -122.293517)",2940 S. Meridian Suite 100,Puyallup,WA,FALSE,,,,,,,Disease-Specific & Episode-Based Models,,1043,
Enhancing Oncology Model,"Northwest Medical Specialties, PLLC",,"11511 Canterwood Blvd Suite 45, Gig Harbor, WA (47.363535, -122.612977)",11511 Canterwood Blvd Suite 45,Gig Harbor,WA,FALSE,,,,,,,Disease-Specific & Episode-Based Models,,1044,
Enhancing Oncology Model,"Northwest Medical Specialties, PLLC",,"34509 9th Ave S. Suite 107, Federal Way, WA (47.292808, -122.326051)",34509 9th Ave S. Suite 107,Federal Way,WA,FALSE,,,,,,,Disease-Specific & Episode-Based Models,,1045,
Enhancing Oncology Model,"PMK Medical Group, Inc.",,"1700 N Rose Ave Suite 320, Oxnard, CA (34.217363, -119.155538)",1700 N Rose Ave Suite 320,Oxnard,CA,FALSE,,,,,,,Disease-Specific & Episode-Based Models,,1046,
Enhancing Oncology Model,"PMK Medical Group, Inc.",,"2900 Loma Vista Road Suite 200, Ventura, CA (34.275121, -119.256842)",2900 Loma Vista Road Suite 200,Ventura,CA,FALSE,,,,,,,Disease-Specific & Episode-Based Models,,1047,
Enhancing Oncology Model,"PMK Medical Group, Inc.",,"500 Paseo Camarillo Suite 106, Camarillo, CA (34.220578, -119.062508)",500 Paseo Camarillo Suite 106,Camarillo,CA,FALSE,,,,,,,Disease-Specific & Episode-Based Models,,1048,
Enhancing Oncology Model,West Clinic,,"7945 Wolf River Blvd, Germantown, TN (35.110956, -89.798631)",7945 Wolf River Blvd,Germantown,TN,FALSE,,,,,,,Disease-Specific & Episode-Based Models,,1049,
Enhancing Oncology Model,West Clinic,,"1588 Union Avenue, Memphis, TN (35.136284, -90.00881)",1588 Union Avenue,Memphis,TN,FALSE,,,,,,,Disease-Specific & Episode-Based Models,,1050,
Enhancing Oncology Model,West Clinic,,"7668 Airways Boulevard, Southaven, MS (34.972506, -89.989731)",7668 Airways Boulevard,Southaven,MS,FALSE,,,,,,,Disease-Specific & Episode-Based Models,,1051,
Enhancing Oncology Model,West Clinic,,"2001 State Drive, Corinth, MS (34.904545, -88.544599)",2001 State Drive,Corinth,MS,FALSE,,,,,,,Disease-Specific & Episode-Based Models,,1052,
Enhancing Oncology Model,West Clinic,,"240 Grandview Dr, Brighton, TN (35.471754, -89.745569)",240 Grandview Dr,Brighton,TN,FALSE,,,,,,,Disease-Specific & Episode-Based Models,,1053,
Enhancing Oncology Model,West Clinic,,"1290 Kelley Drive, Paris, TN (36.294432, -88.305963)",1290 Kelley Drive,Paris,TN,FALSE,,,,,,,Disease-Specific & Episode-Based Models,,1054,
Enhancing Oncology Model,"Tri-County Hematology and Oncology Associates, Inc.",,"7337 Caritas Circle NW, Suite 150, Massillon, OH (40.857826, -81.485873)","7337 Caritas Circle NW, Suite 150",Massillon,OH,FALSE,,,,,,,Disease-Specific & Episode-Based Models,,1055,
Enhancing Oncology Model,"Tri-County Hematology and Oncology Associates, Inc.",,"300 Medical Park Drive, Suite 201, Dover, OH (40.516751, -81.456913)","300 Medical Park Drive, Suite 201",Dover,OH,FALSE,,,,,,,Disease-Specific & Episode-Based Models,,1056,
Enhancing Oncology Model,The Oncology Institute CA a Professional Corporation,,"2440 E. South St., Long Beach, CA (33.859481, -118.163405)",2440 E. South St.,Long Beach,CA,FALSE,,,,,,,Disease-Specific & Episode-Based Models,,1057,
Enhancing Oncology Model,"The Oncology Institute FL, LLC",,"6499 38th Ave N, Suite G1, St. Petersburg, FL (27.806684, -82.725893)","6499 38th Ave N, Suite G1",St. Petersburg,FL,FALSE,,,,,,,Disease-Specific & Episode-Based Models,,1058,
Enhancing Oncology Model,"The Oncology Institute FL, LLC",,"501 Dr. Martin Luther King Jr. St. South, Suite 201, St. Petersburg, FL (27.765291, -82.64687)","501 Dr. Martin Luther King Jr. St. South, Suite 201",St. Petersburg,FL,FALSE,,,,,,,Disease-Specific & Episode-Based Models,,1059,
Enhancing Oncology Model,"The Oncology Institute FL, LLC",,"500 Vonderburg Dr., Suite 204, Brandon, FL (27.930849, -82.287526)","500 Vonderburg Dr., Suite 204",Brandon,FL,FALSE,,,,,,,Disease-Specific & Episode-Based Models,,1060,
Enhancing Oncology Model,"The Oncology Institute FL, LLC",,"4730 Exploration Ave., Lakeland, FL (27.98046, -81.891766)",4730 Exploration Ave.,Lakeland,FL,FALSE,,,,,,,Disease-Specific & Episode-Based Models,,1061,
Enhancing Oncology Model,"The Oncology Institute FL, LLC",,"1601 W. Reynolds St., Suite 101, Plant City, FL (28.014339, -82.139311)","1601 W. Reynolds St., Suite 101",Plant City,FL,FALSE,,,,,,,Disease-Specific & Episode-Based Models,,1062,
Enhancing Oncology Model,"The Oncology Institute FL, LLC",,"4700 N. Habana Ave., Suite 702, Tampa, FL (27.985764, -82.489289)","4700 N. Habana Ave., Suite 702",Tampa,FL,FALSE,,,,,,,Disease-Specific & Episode-Based Models,,1063,
Enhancing Oncology Model,The Oncology Institute CA a Professional Corporation,,"1801 W. Romneya Dr., Suite 103, Anaheim, CA (33.851187, -117.946407)","1801 W. Romneya Dr., Suite 103",Anaheim,CA,FALSE,,,,,,,Disease-Specific & Episode-Based Models,,1064,
Enhancing Oncology Model,The Oncology Institute CA a Professional Corporation,,"6121 N. Thesta St., Suite 204, Fresno, CA (36.825195, -119.783855)","6121 N. Thesta St., Suite 204",Fresno,CA,FALSE,,,,,,,Disease-Specific & Episode-Based Models,,1065,
Enhancing Oncology Model,"Arizona Oncology Associates, PC",,"2625 N Craycroft Road, Suite 201, Tuscon, AZ (32.2547584, -110.8784471)","2625 N Craycroft Road, Suite 201",Tuscon,AZ,FALSE,,,,,,,Disease-Specific & Episode-Based Models,,1066,
Enhancing Oncology Model,"Northwest Cancer Specialists PC, dba Compass Oncology",,"12123 SW 69th Ave., Tigard, OR (45.432558, -122.748068)",12123 SW 69th Ave.,Tigard,OR,FALSE,,,,,,,Disease-Specific & Episode-Based Models,,1067,
Enhancing Oncology Model,"Northwest Cancer Specialists PC, dba Compass Oncology",,"265 N Broadway, Portland, OR (45.535184, -122.66992)",265 N Broadway,Portland,OR,FALSE,,,,,,,Disease-Specific & Episode-Based Models,,1068,
Enhancing Oncology Model,"Northwest Cancer Specialists PC, dba Compass Oncology",,"5050 NE Hoyt St., Ste. 256, Portland, OR (45.526964, -122.61155)","5050 NE Hoyt St., Ste. 256",Portland,OR,FALSE,,,,,,,Disease-Specific & Episode-Based Models,,1069,
Enhancing Oncology Model,"Northwest Cancer Specialists PC, dba Compass Oncology",,"210 SE 136th Ave., VANCOUVER, WA (45.620239, -122.534469)",210 SE 136th Ave.,VANCOUVER,WA,FALSE,,,,,,,Disease-Specific & Episode-Based Models,,1070,
Enhancing Oncology Model,Bryn Mawr Medical Specialists,,"825 Old Lancaster Ave, Bryn Mawr, PA (40.020186, -75.321102)",825 Old Lancaster Ave,Bryn Mawr,PA,FALSE,,,,,,,Disease-Specific & Episode-Based Models,,1071,
Enhancing Oncology Model,"Minnesota Oncology Hematology, P. A.",,"675 East Nicollet Boulevard, Suite 100, Burnsville, MN (44.75167, -93.265876)","675 East Nicollet Boulevard, Suite 100",Burnsville,MN,FALSE,,,,,,,Disease-Specific & Episode-Based Models,,1072,
Enhancing Oncology Model,"Minnesota Oncology Hematology, P. A.",,"110105 Pioneer Trail, Suite 302, Chaska, MN (44.827858, -93.603697)","110105 Pioneer Trail, Suite 302",Chaska,MN,FALSE,,,,,,,Disease-Specific & Episode-Based Models,,1073,
Enhancing Oncology Model,"Minnesota Oncology Hematology, P. A.",,"1580 Beam Avenue, Maplewood, MN (45.027902, -93.034789)",1580 Beam Avenue,Maplewood,MN,FALSE,,,,,,,Disease-Specific & Episode-Based Models,,1074,
Enhancing Oncology Model,"Minnesota Oncology Hematology, P. A.",,"11850 Blackfoot Street NW, Suite 100, Coon Rapids, MN (45.1851254, -93.3718643)","11850 Blackfoot Street NW, Suite 100",Coon Rapids,MN,FALSE,,,,,,,Disease-Specific & Episode-Based Models,,1075,
Enhancing Oncology Model,"Minnesota Oncology Hematology, P. A.",,"6545 France Ave, Suite 210, Edina, MN (44.884737, -93.329094)","6545 France Ave, Suite 210",Edina,MN,FALSE,,,,,,,Disease-Specific & Episode-Based Models,,1076,
Enhancing Oncology Model,"Minnesota Oncology Hematology, P. A.",,"480 Osborne Rd NE, Suite 220, Fridley, MN (45.1072476, -93.261776)","480 Osborne Rd NE, Suite 220",Fridley,MN,FALSE,,,,,,,Disease-Specific & Episode-Based Models,,1077,
Enhancing Oncology Model,"Minnesota Oncology Hematology, P. A.",,"910 E. 26th Street, Suite 200, Minneapolis, MN (44.955712, -93.260557)","910 E. 26th Street, Suite 200",Minneapolis,MN,FALSE,,,,,,,Disease-Specific & Episode-Based Models,,1078,
Enhancing Oncology Model,"Minnesota Oncology Hematology, P. A.",,"2805 Campus Drive, Suite 105, Plymouth, MN (45.01086, -93.454072)","2805 Campus Drive, Suite 105",Plymouth,MN,FALSE,,,,,,,Disease-Specific & Episode-Based Models,,1079,
Enhancing Oncology Model,"Minnesota Oncology Hematology, P. A.",,"310 Smith Ave N, Suite 100, St. Paul, MN (44.941765, -93.107605)","310 Smith Ave N, Suite 100",St. Paul,MN,FALSE,,,,,,,Disease-Specific & Episode-Based Models,,1080,
Enhancing Oncology Model,"Minnesota Oncology Hematology, P. A.",,"560 Maple Street South, Suite 100, Waconia, MN (44.842093, -93.792115)","560 Maple Street South, Suite 100",Waconia,MN,FALSE,,,,,,,Disease-Specific & Episode-Based Models,,1081,
Enhancing Oncology Model,"Minnesota Oncology Hematology, P. A.",,"6025 Lake Road, Suite 110, Woodbury, MN (44.917641, -92.983074)","6025 Lake Road, Suite 110",Woodbury,MN,FALSE,,,,,,,Disease-Specific & Episode-Based Models,,1082,
Enhancing Oncology Model,"Oncology & Hematology Assoc. of Southwest Virginia, lnc.",,"1 ARH Lane, Suite 203, Low Moor, VA (37.792015, -79.881035)","1 ARH Lane, Suite 203",Low Moor,VA,FALSE,,,,,,,Disease-Specific & Episode-Based Models,,1083,
Enhancing Oncology Model,"Oncology & Hematology Assoc. of Southwest Virginia, lnc.",,"1710 Whitfield Drive, Bedford, VA (37.35314, -79.519203)",1710 Whitfield Drive,Bedford,VA,FALSE,,,,,,,Disease-Specific & Episode-Based Models,,1084,
Enhancing Oncology Model,"Oncology & Hematology Assoc. of Southwest Virginia, lnc.",,"2600 Research Center Dr., Suite A, Blacksburg, VA (37.195457, -80.40438)","2600 Research Center Dr., Suite A",Blacksburg,VA,FALSE,,,,,,,Disease-Specific & Episode-Based Models,,1085,
Enhancing Oncology Model,"Oncology & Hematology Assoc. of Southwest Virginia, lnc.",,"390 South Main Street, Suite 103, Rocky Mount, VA (36.993812, -79.890387)","390 South Main Street, Suite 103",Rocky Mount,VA,FALSE,,,,,,,Disease-Specific & Episode-Based Models,,1086,
Enhancing Oncology Model,"Oncology & Hematology Assoc. of Southwest Virginia, lnc.",,"1900 Electric Road, Salem, VA (37.263169, -80.031284)",1900 Electric Road,Salem,VA,FALSE,,,,,,,Disease-Specific & Episode-Based Models,,1087,
Enhancing Oncology Model,"Oncology & Hematology Assoc. of Southwest Virginia, lnc.",,"108 Houston Street, Suite B, Lexington, VA (37.777969, -79.444107)","108 Houston Street, Suite B",Lexington,VA,FALSE,,,,,,,Disease-Specific & Episode-Based Models,,1088,
Enhancing Oncology Model,"Oncology & Hematology Assoc. of Southwest Virginia, lnc.",,"2400 Lee Highway, Pulaski, VA (37.068329, -80.757196)",2400 Lee Highway,Pulaski,VA,FALSE,,,,,,,Disease-Specific & Episode-Based Models,,1089,
Enhancing Oncology Model,"Oncology & Hematology Assoc. of Southwest Virginia, lnc.",,"2013 South Jefferson Street, Roanoke, VA (37.251874, -79.94323)",2013 South Jefferson Street,Roanoke,VA,FALSE,,,,,,,Disease-Specific & Episode-Based Models,,1090,
Enhancing Oncology Model,"Oncology & Hematology Assoc. of Southwest Virginia, lnc.",,"710 West Ridge Road, Suite E, Wytheville, VA (36.953465, -81.096809)","710 West Ridge Road, Suite E",Wytheville,VA,FALSE,,,,,,,Disease-Specific & Episode-Based Models,,1091,
Enhancing Oncology Model,Virginia Oncology Associates,,"744 N Battlefield Blvd, Suite 200, Chesapeake, VA (36.746807, -76.246262)","744 N Battlefield Blvd, Suite 200",Chesapeake,VA,FALSE,,,,,,,Disease-Specific & Episode-Based Models,,1092,
Enhancing Oncology Model,Virginia Oncology Associates,,"1051 Loftis Boulevard, Suite 100, Newport News, VA (37.08402, -76.486302)","1051 Loftis Boulevard, Suite 100",Newport News,VA,FALSE,,,,,,,Disease-Specific & Episode-Based Models,,1093,
Enhancing Oncology Model,Virginia Oncology Associates,,"1503 B North Road Street, Elizabeth City, NC (36.335548, -76.234745)",1503 B North Road Street,Elizabeth City,NC,FALSE,,,,,,,Disease-Specific & Episode-Based Models,,1094,
Enhancing Oncology Model,Virginia Oncology Associates,,"3000 Coliseum Drive, Suite 104, Norfolk, VA (37.056620, -76.390110)","3000 Coliseum Drive, Suite 104",Norfolk,VA,FALSE,,,,,,,Disease-Specific & Episode-Based Models,,1095,
Enhancing Oncology Model,Virginia Oncology Associates,,"6251 E Virginia Beach Blvd, Norfolk, VA (36.854307, -76.191275)",6251 E Virginia Beach Blvd,Norfolk,VA,FALSE,,,,,,,Disease-Specific & Episode-Based Models,,1096,
Enhancing Oncology Model,Virginia Oncology Associates,,"5838 Harbour View Boulevard, Suite 105, Suffolk, VA (36.870061, -76.440623)","5838 Harbour View Boulevard, Suite 105",Suffolk,VA,FALSE,,,,,,,Disease-Specific & Episode-Based Models,,1097,
Enhancing Oncology Model,Virginia Oncology Associates,,"2790 Godwin Boulevard, Suite 101, Suffolk, VA (36.772689, -76.58122)","2790 Godwin Boulevard, Suite 101",Suffolk,VA,FALSE,,,,,,,Disease-Specific & Episode-Based Models,,1098,
Enhancing Oncology Model,Virginia Oncology Associates,,"1950 Glenn Mitchell Drive, Virginia Beach, VA (36.775997, -76.096864)",1950 Glenn Mitchell Drive,Virginia Beach,VA,FALSE,,,,,,,Disease-Specific & Episode-Based Models,,1099,
Enhancing Oncology Model,Virginia Oncology Associates,,"500 Sentara Circle, Suite 203, Williamsburg, VA (37.337948, -76.740898)","500 Sentara Circle, Suite 203",Williamsburg,VA,FALSE,,,,,,,Disease-Specific & Episode-Based Models,,1100,
Enhancing Oncology Model,Texas Oncology,,"100 Park Road, Nocona, TX (33.777263, -97.732666)",100 Park Road,Nocona,TX,FALSE,,,,,,,Disease-Specific & Episode-Based Models,,1101,
Enhancing Oncology Model,Texas Oncology,,"100 S. Ave M, Olney, TX (33.37043, -98.765417)",100 S. Ave M,Olney,TX,FALSE,,,,,,,Disease-Specific & Episode-Based Models,,1102,
Enhancing Oncology Model,"American Oncology Network, Inc.",,"1001 Schneider Dr, Suite 105, Malvern, AR (34.3589, -92.7848)","1001 Schneider Dr, Suite 105",Malvern,AR,FALSE,,,,,,,Disease-Specific & Episode-Based Models,,1103,
Enhancing Oncology Model,"American Oncology Network, Inc.",,"101 Plaza Carmona Place, Suite C, Hot Springs Village, AR (34.6792, -92.9995)","101 Plaza Carmona Place, Suite C",Hot Springs Village,AR,FALSE,,,,,,,Disease-Specific & Episode-Based Models,,1104,
Enhancing Oncology Model,"American Oncology Network, Inc.",,"115 Fairview Rd SW, Camden, AR (33.5356, -92.825768)",115 Fairview Rd SW,Camden,AR,FALSE,,,,,,,Disease-Specific & Episode-Based Models,,1105,
Enhancing Oncology Model,"American Oncology Network, Inc.",,"136 Health Park Lane, Mena, AR (34.592983, -94.208526)",136 Health Park Lane,Mena,AR,FALSE,,,,,,,Disease-Specific & Episode-Based Models,,1106,
Enhancing Oncology Model,"American Oncology Network, Inc.",,"1455 Higdon Ferry Rd, Suite B, Hot Springs, AR (34.4671, -93.0697)","1455 Higdon Ferry Rd, Suite B",Hot Springs,AR,FALSE,,,,,,,Disease-Specific & Episode-Based Models,,1107,
Enhancing Oncology Model,"American Oncology Network, Inc.",,"2910 Cypress Rd, Arkadelphia, AR (34.124368, -93.087998)",2910 Cypress Rd,Arkadelphia,AR,FALSE,,,,,,,Disease-Specific & Episode-Based Models,,1108,
Enhancing Oncology Model,"American Oncology Network, Inc.",,"2910 Cypress Rd, Arkadelphia, AR (34.124368, -93.087998)",2910 Cypress Rd,Arkadelphia,AR,FALSE,,,,,,,Disease-Specific & Episode-Based Models,,1109,
Enhancing Oncology Model,"American Oncology Network, Inc.",,"130 Medical Cir, Nashville, AR (33.949667, -93.880089)",130 Medical Cir,Nashville,AR,FALSE,,,,,,,Disease-Specific & Episode-Based Models,,1110,
Enhancing Oncology Model,"American Oncology Network, Inc.",,"133 Harmony Park Cir, Hot Springs, AR (34.464032, -93.066918)",133 Harmony Park Cir,Hot Springs,AR,FALSE,,,,,,,Disease-Specific & Episode-Based Models,,1111,
Enhancing Oncology Model,"American Oncology Network, Inc.",,"1808 West Main St, Suite 200, Russellville, AR (35.2836, -93.1498)","1808 West Main St, Suite 200",Russellville,AR,FALSE,,,,,,,Disease-Specific & Episode-Based Models,,1112,
Enhancing Oncology Model,"American Oncology Network, Inc.",,"3 Medical Park Drive, Suite 202, Benton, AR (34.5744, -92.5853)","3 Medical Park Drive, Suite 202",Benton,AR,FALSE,,,,,,,Disease-Specific & Episode-Based Models,,1113,
Enhancing Oncology Model,Texas Oncology,,"10425 N. Central Expressway, Dallas, TX (32.888647, -96.770569)",10425 N. Central Expressway,Dallas,TX,FALSE,,,,,,,Disease-Specific & Episode-Based Models,,1114,
Enhancing Oncology Model,Texas Oncology,,"2021 North MacArthur Blvd., Irving, TX (32.835354, -96.961007)",2021 North MacArthur Blvd.,Irving,TX,FALSE,,,,,,,Disease-Specific & Episode-Based Models,,1115,
Enhancing Oncology Model,Texas Oncology,,"21216 Northwest Freeway, Cypress, TX (29.925609, -95.633075)",21216 Northwest Freeway,Cypress,TX,FALSE,,,,,,,Disease-Specific & Episode-Based Models,,1116,
Enhancing Oncology Model,Texas Oncology,,"1000 S. Coulter, Amarillo, TX (35.204367, -101.922861)",1000 S. Coulter,Amarillo,TX,FALSE,,,,,,,Disease-Specific & Episode-Based Models,,1117,
Enhancing Oncology Model,Texas Oncology,,"1025 Birdsong Drive, Baytown, TX (29.765934, -94.976235)",1025 Birdsong Drive,Baytown,TX,FALSE,,,,,,,Disease-Specific & Episode-Based Models,,1118,
Enhancing Oncology Model,Texas Oncology,,"1904 Pine Street, Abilene, TX (32.471411, -99.731327)",1904 Pine Street,Abilene,TX,FALSE,,,,,,,Disease-Specific & Episode-Based Models,,1119,
Enhancing Oncology Model,Texas Oncology,,"2001 N. MacArthur, Irving, TX (32.835354, -96.961007)",2001 N. MacArthur,Irving,TX,FALSE,,,,,,,Disease-Specific & Episode-Based Models,,1120,
Enhancing Oncology Model,Texas Oncology,,"1010 North Mill St, Bowie, TX (33.563846, -97.836382)",1010 North Mill St,Bowie,TX,FALSE,,,,,,,Disease-Specific & Episode-Based Models,,1121,
Enhancing Oncology Model,Texas Oncology,,"1015 E. 32nd Street, Austin, TX (30.28952, -97.724279)",1015 E. 32nd Street,Austin,TX,FALSE,,,,,,,Disease-Specific & Episode-Based Models,,1122,
Enhancing Oncology Model,Texas Oncology,,"10970 Shadow Creek Pkwy, Pearland, TX (29.577495, -95.388931)",10970 Shadow Creek Pkwy,Pearland,TX,FALSE,,,,,,,Disease-Specific & Episode-Based Models,,1123,
Enhancing Oncology Model,Texas Oncology,,"1957 Antilley Road, Abilene, TX (32.372506, -99.747189)",1957 Antilley Road,Abilene,TX,FALSE,,,,,,,Disease-Specific & Episode-Based Models,,1124,
Enhancing Oncology Model,Texas Oncology,,"104 Max Starcke Dam Road, marble Falls, TX (30.555211, -98.27247)",104 Max Starcke Dam Road,marble Falls,TX,FALSE,,,,,,,Disease-Specific & Episode-Based Models,,1125,
Enhancing Oncology Model,Texas Oncology,,"1105 Central Expressway, Allen, TX (33.116103, -96.673106)",1105 Central Expressway,Allen,TX,FALSE,,,,,,,Disease-Specific & Episode-Based Models,,1126,
Enhancing Oncology Model,Texas Oncology,,"11130 Christus hills, San Antonio, TX (29.464612, -98.697094)",11130 Christus hills,San Antonio,TX,FALSE,,,,,,,Disease-Specific & Episode-Based Models,,1127,
Enhancing Oncology Model,Texas Oncology,,"1441 N. Beckley Ave., Dallas, TX (32.76156, -96.825026)",1441 N. Beckley Ave.,Dallas,TX,FALSE,,,,,,,Disease-Specific & Episode-Based Models,,1128,
Enhancing Oncology Model,Texas Oncology,,"1631 Lancaster Drive, Grapevine, TX (32.932277, -97.091588)",1631 Lancaster Drive,Grapevine,TX,FALSE,,,,,,,Disease-Specific & Episode-Based Models,,1129,
Enhancing Oncology Model,Texas Oncology,,"18707 Hardy Oak, San Antonio, TX (29.615543, -98.478258)",18707 Hardy Oak,San Antonio,TX,FALSE,,,,,,,Disease-Specific & Episode-Based Models,,1130,
Enhancing Oncology Model,Texas Oncology,,"11920 Astoria Blvd, Houston, TX (29.58363, -95.208479)",11920 Astoria Blvd,Houston,TX,FALSE,,,,,,,Disease-Specific & Episode-Based Models,,1131,
Enhancing Oncology Model,Texas Oncology,,"1300 North 4th Street, Longview, TX (32.510531, -94.730693)",1300 North 4th Street,Longview,TX,FALSE,,,,,,,Disease-Specific & Episode-Based Models,,1132,
Enhancing Oncology Model,Texas Oncology,,"1310B Paluxy Road, Granbury, TX (32.432362, -97.803711)",1310B Paluxy Road,Granbury,TX,FALSE,,,,,,,Disease-Specific & Episode-Based Models,,1133,
Enhancing Oncology Model,Texas Oncology,,"1425 East Lincoln Road, Idabel, OK (33.8829, -94.791664)",1425 East Lincoln Road,Idabel,OK,FALSE,,,,,,,Disease-Specific & Episode-Based Models,,1134,
Enhancing Oncology Model,Texas Oncology,,"1200 Brooklyn Ave, San Antonio, TX (29.440281, -98.490345)",1200 Brooklyn Ave,San Antonio,TX,FALSE,,,,,,,Disease-Specific & Episode-Based Models,,1135,
Enhancing Oncology Model,Texas Oncology,,"1308 Wonder World Dr., San Marcos, TX (29.851751, -97.947996)",1308 Wonder World Dr.,San Marcos,TX,FALSE,,,,,,,Disease-Specific & Episode-Based Models,,1136,
Enhancing Oncology Model,Texas Oncology,,"12221 Renfert Way, Austin, TX (30.411476, -97.703659)",12221 Renfert Way,Austin,TX,FALSE,,,,,,,Disease-Specific & Episode-Based Models,,1137,
Enhancing Oncology Model,Texas Oncology,,"1228 Church Street, Sulphur Springs, TX (33.155558, -95.598341)",1228 Church Street,Sulphur Springs,TX,FALSE,,,,,,,Disease-Specific & Episode-Based Models,,1138,
Enhancing Oncology Model,Texas Oncology,,"124 E. Bandera Road, Boerne, TX (29.780579, -98.727503)",124 E. Bandera Road,Boerne,TX,FALSE,,,,,,,Disease-Specific & Episode-Based Models,,1139,
Enhancing Oncology Model,Texas Oncology,,"13215 Dotson Road, Houston, TX (29.967883, -95.55389)",13215 Dotson Road,Houston,TX,FALSE,,,,,,,Disease-Specific & Episode-Based Models,,1140,
Enhancing Oncology Model,Texas Oncology,,"1330 E. 6th Street, Weslaco, TX (26.154253, -97.977321)",1330 E. 6th Street,Weslaco,TX,FALSE,,,,,,,Disease-Specific & Episode-Based Models,,1141,
Enhancing Oncology Model,Texas Oncology,,"1323 E. Franklin St, Hillsboro, TX (32.011557, -97.099087)",1323 E. Franklin St,Hillsboro,TX,FALSE,,,,,,,Disease-Specific & Episode-Based Models,,1142,
Enhancing Oncology Model,Texas Oncology,,"1339 East Street, Graham, TX (33.090692, -98.583799)",1339 East Street,Graham,TX,FALSE,,,,,,,Disease-Specific & Episode-Based Models,,1143,
Enhancing Oncology Model,Texas Oncology,,"1350 First Colony Blvd, Sugar Land, TX (29.60263, -95.636601)",1350 First Colony Blvd,Sugar Land,TX,FALSE,,,,,,,Disease-Specific & Episode-Based Models,,1144,
Enhancing Oncology Model,Texas Oncology,,"1331 West Grand parkway North, Katy, TX (29.790524, -95.77865)",1331 West Grand parkway North,Katy,TX,FALSE,,,,,,,Disease-Specific & Episode-Based Models,,1145,
Enhancing Oncology Model,Texas Oncology,,"1401 Medical parkway, Cedar Park, TX (30.532424, -97.812177)",1401 Medical parkway,Cedar Park,TX,FALSE,,,,,,,Disease-Specific & Episode-Based Models,,1146,
Enhancing Oncology Model,Texas Oncology,,"1448 East Common Street, New Braunfels, TX (29.722323, -98.099528)",1448 East Common Street,New Braunfels,TX,FALSE,,,,,,,Disease-Specific & Episode-Based Models,,1147,
Enhancing Oncology Model,Texas Oncology,,"150 E. Medical Center Blvd, Webster, TX (29.543778, -95.121657)",150 E. Medical Center Blvd,Webster,TX,FALSE,,,,,,,Disease-Specific & Episode-Based Models,,1148,
Enhancing Oncology Model,Texas Oncology,,"150 River North Blvd, Stephenville, TX (32.228752, -98.23264)",150 River North Blvd,Stephenville,TX,FALSE,,,,,,,Disease-Specific & Episode-Based Models,,1149,
Enhancing Oncology Model,"The Longstreet Clinic, P.C.",,"725 Jesse Jewell Parkway SE Suite 390, Gainesville, GA (34.301385, -83.818606)",725 Jesse Jewell Parkway SE Suite 390,Gainesville,GA,FALSE,,,,,,,Disease-Specific & Episode-Based Models,,1150,
Enhancing Oncology Model,"American Oncology Network, Inc.",,"1 Meadows Parkway, Ste B, Vidalia, GA (32.2094, -82.3758)","1 Meadows Parkway, Ste B",Vidalia,GA,FALSE,,,,,,,Disease-Specific & Episode-Based Models,,1151,
Enhancing Oncology Model,"American Oncology Network, Inc.",,"77 W Forest Ave, Ste 301, Flagstaff, AZ (35.2092, -111.6444)","77 W Forest Ave, Ste 301",Flagstaff,AZ,FALSE,,,,,,,Disease-Specific & Episode-Based Models,,1152,
Enhancing Oncology Model,"American Oncology Network, Inc.",,"1876 E. Sabin Dr, Suite 10, Casa Grande, AZ (32.8821, -111.7069)","1876 E. Sabin Dr, Suite 10",Casa Grande,AZ,FALSE,,,,,,,Disease-Specific & Episode-Based Models,,1153,
Enhancing Oncology Model,"American Oncology Network, Inc.",,"18223 E. 10 Mile Road, Suite 100, Roseville, MI (42.4807, -82.9331)","18223 E. 10 Mile Road, Suite 100",Roseville,MI,FALSE,,,,,,,Disease-Specific & Episode-Based Models,,1154,
Enhancing Oncology Model,"American Oncology Network, Inc.",,"802 East Highway 60, Monett, MO (36.915261, -93.945855)",802 East Highway 60,Monett,MO,FALSE,,,,,,,Disease-Specific & Episode-Based Models,,1155,
Enhancing Oncology Model,"American Oncology Network, Inc.",,"11921 S 226 Hwy, Spruce Pine, NC (35.9245, -82.0879)",11921 S 226 Hwy,Spruce Pine,NC,FALSE,,,,,,,Disease-Specific & Episode-Based Models,,1156,
Enhancing Oncology Model,"American Oncology Network, Inc.",,"6827 W Tropicana Ave, Suite 110, Las Vegas, NV (36.0986, -115.2409)","6827 W Tropicana Ave, Suite 110",Las Vegas,NV,FALSE,,,,,,,Disease-Specific & Episode-Based Models,,1157,
Enhancing Oncology Model,"American Oncology Network, Inc.",,"14780 W. Mountain View Blvd, Ste 211, Surprise, AZ (33.6558, -112.3781)","14780 W. Mountain View Blvd, Ste 211",Surprise,AZ,FALSE,,,,,,,Disease-Specific & Episode-Based Models,,1158,
Enhancing Oncology Model,"American Oncology Network, Inc.",,"6985 McGinnis Ferry Road, Suite 100, Johns Creek, GA (34.0605, -84.1559)","6985 McGinnis Ferry Road, Suite 100",Johns Creek,GA,FALSE,,,,,,,Disease-Specific & Episode-Based Models,,1159,
Enhancing Oncology Model,"American Oncology Network, Inc.",,"1111 Glynco Parkway, Suite 35, Brunswick, GA (31.2418, -81.4993)","1111 Glynco Parkway, Suite 35",Brunswick,GA,FALSE,,,,,,,Disease-Specific & Episode-Based Models,,1160,
Enhancing Oncology Model,"American Oncology Network, Inc.",,"4700 Waters Ave, Suite 201, Savannah, GA (32.0305, -81.0884)","4700 Waters Ave, Suite 201",Savannah,GA,FALSE,,,,,,,Disease-Specific & Episode-Based Models,,1161,
Enhancing Oncology Model,"American Oncology Network, Inc.",,"10 One Center Ct, Franklin, NC (35.194955, -83.358702)",10 One Center Ct,Franklin,NC,FALSE,,,,,,,Disease-Specific & Episode-Based Models,,1162,
Enhancing Oncology Model,"American Oncology Network, Inc.",,"1000 Towne Center Blvd, Suite 704, Pooler, GA (32.1424, -81.2561)","1000 Towne Center Blvd, Suite 704",Pooler,GA,FALSE,,,,,,,Disease-Specific & Episode-Based Models,,1163,
Enhancing Oncology Model,"American Oncology Network, Inc.",,"13914 Southeastern Pkwy, Ste 203A, Fishers, IN (39.9900, -85.9164)","13914 Southeastern Pkwy, Ste 203A",Fishers,IN,FALSE,,,,,,,Disease-Specific & Episode-Based Models,,1164,
Enhancing Oncology Model,"American Oncology Network, Inc.",,"2505 N Lebanon St, Ste 125, Lebanon, IN (40.0489, -86.4694)","2505 N Lebanon St, Ste 125",Lebanon,IN,FALSE,,,,,,,Disease-Specific & Episode-Based Models,,1165,
Enhancing Oncology Model,"American Oncology Network, Inc.",,"8550 Naab Rd, Ste 205, Indianapolis, IN (39.9113, -86.1994)","8550 Naab Rd, Ste 205",Indianapolis,IN,FALSE,,,,,,,Disease-Specific & Episode-Based Models,,1166,
Enhancing Oncology Model,"American Oncology Network, Inc.",,"1601 Fair Rd, Suite 900, Statesboro, GA (32.4091, -81.7655)","1601 Fair Rd, Suite 900",Statesboro,GA,FALSE,,,,,,,Disease-Specific & Episode-Based Models,,1167,
Enhancing Oncology Model,"American Oncology Network, Inc.",,"740 E. General Stewart Way, Suite 210B, Hinesville, GA (31.8548, -81.5803)","740 E. General Stewart Way, Suite 210B",Hinesville,GA,FALSE,,,,,,,Disease-Specific & Episode-Based Models,,1168,
Enhancing Oncology Model,"American Oncology Network, Inc.",,"1 Edmundson Place, Ste 100, Council Bluffs, IA (41.2688, -95.8354)","1 Edmundson Place, Ste 100",Council Bluffs,IA,FALSE,,,,,,,Disease-Specific & Episode-Based Models,,1169,
Enhancing Oncology Model,"American Oncology Network, Inc.",,"2855 E Magic View Dr, Ste B, Meridian, ID (43.599057, -116.359584)","2855 E Magic View Dr, Ste B",Meridian,ID,FALSE,,,,,,,Disease-Specific & Episode-Based Models,,1170,
Enhancing Oncology Model,"American Oncology Network, Inc.",,"605 Medical Center Drive, Ste B, Alexandria, LA (31.3128, -92.4509)","605 Medical Center Drive, Ste B",Alexandria,LA,FALSE,,,,,,,Disease-Specific & Episode-Based Models,,1171,
Enhancing Oncology Model,"American Oncology Network, Inc.",,"8585 Picardy Avenue, Suite 110, Baton Rouge, LA (30.4000, -91.1098)","8585 Picardy Avenue, Suite 110",Baton Rouge,LA,FALSE,,,,,,,Disease-Specific & Episode-Based Models,,1172,
Enhancing Oncology Model,"American Oncology Network, Inc.",,"1025 Michigan Ave, Logansport, IN (40.762095, -86.361676)",1025 Michigan Ave,Logansport,IN,FALSE,,,,,,,Disease-Specific & Episode-Based Models,,1173,
Enhancing Oncology Model,"American Oncology Network, Inc.",,"186 Medical Park Loop, Suite 501, Sylva, NC (35.3873, -83.2032)","186 Medical Park Loop, Suite 501",Sylva,NC,FALSE,,,,,,,Disease-Specific & Episode-Based Models,,1174,
Enhancing Oncology Model,"American Oncology Network, Inc.",,"4419 Hwy 7 North, Ste 201, Hot Springs, AR (34.653900, -93.057010)","4419 Hwy 7 North, Ste 201",Hot Springs,AR,FALSE,,,,,,,Disease-Specific & Episode-Based Models,,1175,
Enhancing Oncology Model,"American Oncology Network, Inc.",,"20522 Falcons Landing Circle, Potomac Falls, VA (39.048800, -77.376260)",20522 Falcons Landing Circle,Potomac Falls,VA,FALSE,,,,,,,Disease-Specific & Episode-Based Models,,1176,
Enhancing Oncology Model,"American Oncology Network, Inc.",,"1300 Centerview Drive, Little Rock, AR (34.74179, -92.402030)",1300 Centerview Drive,Little Rock,AR,FALSE,,,,,,,Disease-Specific & Episode-Based Models,,1177,
Enhancing Oncology Model,"American Oncology Network, Inc.",,"3 Medical Park Drive, Ste 202, Benton, AR (34.574720, -92.585360)","3 Medical Park Drive, Ste 202",Benton,AR,FALSE,,,,,,,Disease-Specific & Episode-Based Models,,1178,
Enhancing Oncology Model,"American Oncology Network, Inc.",,"400 Crestwood Circle, Ste J, Mena, AR (34.589210, -94.220020)","400 Crestwood Circle, Ste J",Mena,AR,FALSE,,,,,,,Disease-Specific & Episode-Based Models,,1179,
Enhancing Oncology Model,"American Oncology Network, Inc.",,"1281 E. Cottonwood Lane, Casa Grande, AZ (32.893680, -111.731740)",1281 E. Cottonwood Lane,Casa Grande,AZ,FALSE,,,,,,,Disease-Specific & Episode-Based Models,,1180,
Enhancing Oncology Model,"American Oncology Network, Inc.",,"1 Mercy Lane, Ste 200A, Hot Springs, AR(34.468290, -93.066670)","1 Mercy Lane, Ste 200A",Hot Springs,AR,FALSE,,,,,,,Disease-Specific & Episode-Based Models,,1181,
Enhancing Oncology Model,"American Oncology Network, Inc.",,"430 Magnolia Rd, Camden, AR (33.579380, -92.834560)",430 Magnolia Rd,Camden,AR,FALSE,,,,,,,Disease-Specific & Episode-Based Models,,1182,
Enhancing Oncology Model,"American Oncology Network, Inc.",,"3220 McMullen Booth Rd, Suite C, Clearwater, FL (28.0388, -82.7100)","3220 McMullen Booth Rd, Suite C",Clearwater,FL,FALSE,,,,,,,Disease-Specific & Episode-Based Models,,1183,
Enhancing Oncology Model,"American Oncology Network, Inc.",,"207 S. Wayne St., Alma, GA (31.5399, -82.4599)",207 S. Wayne St.,Alma,GA,FALSE,,,,,,,Disease-Specific & Episode-Based Models,,1184,
Enhancing Oncology Model,"American Oncology Network, Inc.",,"5326 Oak Street, Saint Francisville, LA (30.7907, -91.3718)",5326 Oak Street,Saint Francisville,LA,FALSE,,,,,,,Disease-Specific & Episode-Based Models,,1185,
Enhancing Oncology Model,"American Oncology Network, Inc.",,"101 Greenfield Dr, Suite 220, Cumming, GA (34.1819, -84.1464)","101 Greenfield Dr, Suite 220",Cumming,GA,FALSE,,,,,,,Disease-Specific & Episode-Based Models,,1186,
Enhancing Oncology Model,Texas Oncology,,"1500 Rivery Blvd., Georgetown, TX (30.649662, -97.687524)",1500 Rivery Blvd.,Georgetown,TX,FALSE,,,,,,,Disease-Specific & Episode-Based Models,,1187,
Enhancing Oncology Model,Texas Oncology,,"1600 W. College Street, Grapevine, TX (32.93087, -97.086458)",1600 W. College Street,Grapevine,TX,FALSE,,,,,,,Disease-Specific & Episode-Based Models,,1188,
Enhancing Oncology Model,Texas Oncology,,"1501 West Royal Lane, Irving, TX (32.899477, -96.968642)",1501 West Royal Lane,Irving,TX,FALSE,,,,,,,Disease-Specific & Episode-Based Models,,1189,
Enhancing Oncology Model,Texas Oncology,,"2460 North I-35, Waxahachie, TX (32.429363, -96.858253)",2460 North I-35,Waxahachie,TX,FALSE,,,,,,,Disease-Specific & Episode-Based Models,,1190,
Enhancing Oncology Model,Texas Oncology,,"1608 W. FM 700, Big Spring, TX (32.234888, -101.489739)",1608 W. FM 700,Big Spring,TX,FALSE,,,,,,,Disease-Specific & Episode-Based Models,,1191,
Enhancing Oncology Model,Texas Oncology,,"1609 Hospital Parkway, Bedford, TX (32.835534, -97.126186)",1609 Hospital Parkway,Bedford,TX,FALSE,,,,,,,Disease-Specific & Episode-Based Models,,1192,
Enhancing Oncology Model,Texas Oncology,,"1626 W. Hwy 287 Business, Waxahachie, TX (32.399879, -96.865074)",1626 W. Hwy 287 Business,Waxahachie,TX,FALSE,,,,,,,Disease-Specific & Episode-Based Models,,1193,
Enhancing Oncology Model,Texas Oncology,,"1901 South 2nd St., McAllen, TX (26.186082, -98.224069)",1901 South 2nd St.,McAllen,TX,FALSE,,,,,,,Disease-Specific & Episode-Based Models,,1194,
Enhancing Oncology Model,Texas Oncology,,"1907 Hwy 97 E, Jourdanton, TX (28.932256, -98.525212)",1907 Hwy 97 E,Jourdanton,TX,FALSE,,,,,,,Disease-Specific & Episode-Based Models,,1195,
Enhancing Oncology Model,Texas Oncology,,"191 Walls Drive, Cleburne, TX (32.332746, -97.437158)",191 Walls Drive,Cleburne,TX,FALSE,,,,,,,Disease-Specific & Episode-Based Models,,1196,
Enhancing Oncology Model,Texas Oncology,,"2014 S. Wheeler, Jasper, TX (30.901573, -93.993243)",2014 S. Wheeler,Jasper,TX,FALSE,,,,,,,Disease-Specific & Episode-Based Models,,1197,
Enhancing Oncology Model,Texas Oncology,,"1700 W State Highway 6, Waco, TX (31.585853, -97.119643)",1700 W State Highway 6,Waco,TX,FALSE,,,,,,,Disease-Specific & Episode-Based Models,,1198,
Enhancing Oncology Model,Texas Oncology,,"18780 I-20, Canton, TX (32.588064, -95.874279)",18780 I-20,Canton,TX,FALSE,,,,,,,Disease-Specific & Episode-Based Models,,1199,
Enhancing Oncology Model,Texas Oncology,,"17189 I-45, MOB II, The Woodlands, TX (30.205188, -95.451727)","17189 I-45, MOB II",The Woodlands,TX,FALSE,,,,,,,Disease-Specific & Episode-Based Models,,1200,
Enhancing Oncology Model,Texas Oncology,,"18980 W. Memorial Drive, Kingwood, TX (40.274185, -75.020499)",18980 W. Memorial Drive,Kingwood,TX,FALSE,,,,,,,Disease-Specific & Episode-Based Models,,1201,
Enhancing Oncology Model,Texas Oncology,,"1901 Grandview, El Paso, TX (31.77797, -106.475734)",1901 Grandview,El Paso,TX,FALSE,,,,,,,Disease-Specific & Episode-Based Models,,1202,
Enhancing Oncology Model,Texas Oncology,,"2410 Round Rock Ave., Round Rock, TX (30.50997, -97.714311)",2410 Round Rock Ave.,Round Rock,TX,FALSE,,,,,,,Disease-Specific & Episode-Based Models,,1203,
Enhancing Oncology Model,Texas Oncology,,"260 E. Evergreen Street, Sherman, TX (33.64754, -96.609499)",260 E. Evergreen Street,Sherman,TX,FALSE,,,,,,,Disease-Specific & Episode-Based Models,,1204,
Enhancing Oncology Model,Texas Oncology,,"2705 Prince George Ave., DeSoto, TX (32.644241, -96.88184)",2705 Prince George Ave.,DeSoto,TX,FALSE,,,,,,,Disease-Specific & Episode-Based Models,,1205,
Enhancing Oncology Model,Texas Oncology,,"201 S. Ave. T, Clifton, TX (31.781725, -97.573081)",201 S. Ave. T,Clifton,TX,FALSE,,,,,,,Disease-Specific & Episode-Based Models,,1206,
Enhancing Oncology Model,Texas Oncology,,"515 W. Mayfield Rd., Arlington, TX (32.683823, -97.109615)",515 W. Mayfield Rd.,Arlington,TX,FALSE,,,,,,,Disease-Specific & Episode-Based Models,,1207,
Enhancing Oncology Model,Texas Oncology,,"5680 Frisco Square Blvd., Frisco, TX (33.150911, -96.837746)",5680 Frisco Square Blvd.,Frisco,TX,FALSE,,,,,,,Disease-Specific & Episode-Based Models,,1208,
Enhancing Oncology Model,Texas Oncology,,"2026 South Jackson, Jacksonville, TX (31.938716, -95.247921)",2026 South Jackson,Jacksonville,TX,FALSE,,,,,,,Disease-Specific & Episode-Based Models,,1209,
Enhancing Oncology Model,Texas Oncology,,"301 Hospital Drive, Corsicana, TX (32.082806, -96.500796)",301 Hospital Drive,Corsicana,TX,FALSE,,,,,,,Disease-Specific & Episode-Based Models,,1210,
Enhancing Oncology Model,Texas Oncology,,"304 S. Daugherty Ave., Eastland, TX (32.399933, -98.821367)",304 S. Daugherty Ave.,Eastland,TX,FALSE,,,,,,,Disease-Specific & Episode-Based Models,,1211,
Enhancing Oncology Model,Texas Oncology,,"2101 Mulberry St., Mount Pleasant, TX (33.176869, -94.97367)",2101 Mulberry St.,Mount Pleasant,TX,FALSE,,,,,,,Disease-Specific & Episode-Based Models,,1212,
Enhancing Oncology Model,Texas Oncology,,"211 Elmhurst Drive, Kyle, TX (29.998901, -97.860474)",211 Elmhurst Drive,Kyle,TX,FALSE,,,,,,,Disease-Specific & Episode-Based Models,,1213,
Enhancing Oncology Model,Texas Oncology,,"2150 N. Expressway 83, Brownsville, TX (25.9464828, -97.5065615)",2150 N. Expressway 83,Brownsville,TX,FALSE,,,,,,,Disease-Specific & Episode-Based Models,,1214,
Enhancing Oncology Model,Texas Oncology,,"506 Graham Drive, Tomball, TX (30.089384, -95.619971)",506 Graham Drive,Tomball,TX,FALSE,,,,,,,Disease-Specific & Episode-Based Models,,1215,
Enhancing Oncology Model,Texas Oncology,,"514 S. Bonham, Mexia, TX (31.676141, -96.48015)",514 S. Bonham,Mexia,TX,FALSE,,,,,,,Disease-Specific & Episode-Based Models,,1216,
Enhancing Oncology Model,Texas Oncology,,"7211 Preston Road, Plano, TX (33.075655, -96.797408)",7211 Preston Road,Plano,TX,FALSE,,,,,,,Disease-Specific & Episode-Based Models,,1217,
Enhancing Oncology Model,Texas Oncology,,"2121 Pease, Harlingen, TX (26.174448, -97.67146)",2121 Pease,Harlingen,TX,FALSE,,,,,,,Disease-Specific & Episode-Based Models,,1218,
Enhancing Oncology Model,Texas Oncology,,"221 W. Colorado Blvd, Dallas, TX (32.758487, -96.823939)",221 W. Colorado Blvd,Dallas,TX,FALSE,,,,,,,Disease-Specific & Episode-Based Models,,1219,
Enhancing Oncology Model,Texas Oncology,,"2300 Lohmans Spur, Lakeway, TX (30.338364, -97.971434)",2300 Lohmans Spur,Lakeway,TX,FALSE,,,,,,,Disease-Specific & Episode-Based Models,,1220,
Enhancing Oncology Model,Texas Oncology,,"305 Sandy Corner Rd., El Campo, TX (29.219363, -96.291231)",305 Sandy Corner Rd.,El Campo,TX,FALSE,,,,,,,Disease-Specific & Episode-Based Models,,1221,
Enhancing Oncology Model,Texas Oncology,,"2130 NE Loop 410, San Antonio, TX (29.51519, -98.427123)",2130 NE Loop 410,San Antonio,TX,FALSE,,,,,,,Disease-Specific & Episode-Based Models,,1222,
Enhancing Oncology Model,Texas Oncology,,"2501 Jimmy Johnson Blvd., Port Arthur, TX (29.933692, -93.988957)",2501 Jimmy Johnson Blvd.,Port Arthur,TX,FALSE,,,,,,,Disease-Specific & Episode-Based Models,,1223,
Enhancing Oncology Model,"The Longstreet Clinic, P.C.",,"1515 River Place West, Braselton, GA (34.117589, -83.840469)",1515 River Place West,Braselton,GA,FALSE,,,,,,,Disease-Specific & Episode-Based Models,,1224,
Enhancing Oncology Model,"The Longstreet Clinic, P.C.",,"1640 Falls Road, Toccoa, GA (34.598688, -83.34885)",1640 Falls Road,Toccoa,GA,FALSE,,,,,,,Disease-Specific & Episode-Based Models,,1225,
Enhancing Oncology Model,"Oncology Associates of Oregon, PC",,"520 Country Club Rd, Eugene, OR (44.063247, -123.091311)",520 Country Club Rd,Eugene,OR,FALSE,,,,,,,Disease-Specific & Episode-Based Models,,1226,
Enhancing Oncology Model,"Oncology Associates of Oregon, PC",,"444 NW Elks Drive, Corvallis, OR (44.60054, -123.254024)",444 NW Elks Drive,Corvallis,OR,FALSE,,,,,,,Disease-Specific & Episode-Based Models,,1227,
Enhancing Oncology Model,"Oncology Associates of Oregon, PC",,"2615 Willetta Street, Suite C, Albany, OR (44.61611, -123.114844)","2615 Willetta Street, Suite C",Albany,OR,FALSE,,,,,,,Disease-Specific & Episode-Based Models,,1228,
Enhancing Oncology Model,"Oncology Associates of Oregon, PC",,"340 9th Street, Florence, OR (43.974692, -124.119271)",340 9th Street,Florence,OR,FALSE,,,,,,,Disease-Specific & Episode-Based Models,,1229,
Enhancing Oncology Model,"Oncology Associates of Oregon, PC",,"2039 North Coast Highway, Newport, OR (44.651837, -124.053156)",2039 North Coast Highway,Newport,OR,FALSE,,,,,,,Disease-Specific & Episode-Based Models,,1230,
Enhancing Oncology Model,"Oncology Associates of Oregon, PC",,"3355 Riverbend Drive, Suite 450, Springfield, OR (44.082264, -123.027538)","3355 Riverbend Drive, Suite 450",Springfield,OR,FALSE,,,,,,,Disease-Specific & Episode-Based Models,,1231,
Enhancing Oncology Model,"Oncology Associates of Oregon, PC",,"3015 NE West Devils Lake Rd, Lincoln City, OR (44.98742, -123.997093)",3015 NE West Devils Lake Rd,Lincoln City,OR,FALSE,,,,,,,Disease-Specific & Episode-Based Models,,1232,
Enhancing Oncology Model,Cancer and Hematology Centers of Western Michigan,,"145 Michigan St. NE, Suite 3100, Grand Rapids, MI (42.970925, -85.665236)","145 Michigan St. NE, Suite 3100",Grand Rapids,MI,FALSE,,,,,,,Disease-Specific & Episode-Based Models,,1233,
Enhancing Oncology Model,Cancer and Hematology Centers of Western Michigan,,"6425 Harvey St., Norton Shores, MI (43.168904, -86.263946)",6425 Harvey St.,Norton Shores,MI,FALSE,,,,,,,Disease-Specific & Episode-Based Models,,1234,
Enhancing Oncology Model,Cancer and Hematology Centers of Western Michigan,,"250 Cherry St. SE, Grand Rapids, MI (42.959327, -85.662949)",250 Cherry St. SE,Grand Rapids,MI,FALSE,,,,,,,Disease-Specific & Episode-Based Models,,1235,
Enhancing Oncology Model,Cancer and Hematology Centers of Western Michigan,,"5800 Foremost Dr. SE, Grand Rapids, MI (42.91009, -85.524225)",5800 Foremost Dr. SE,Grand Rapids,MI,FALSE,,,,,,,Disease-Specific & Episode-Based Models,,1236,
Enhancing Oncology Model,Cancer and Hematology Centers of Western Michigan,,"12460 Riley St., Holland, MI (42.826017, -86.089505)",12460 Riley St.,Holland,MI,FALSE,,,,,,,Disease-Specific & Episode-Based Models,,1237,
Enhancing Oncology Model,Cancer and Hematology Centers of Western Michigan,,"302 Kensington Ave, Flint, MI (43.0240651, -83.6701651)",302 Kensington Ave,Flint,MI,FALSE,,,,,,,Disease-Specific & Episode-Based Models,,1238,
Enhancing Oncology Model,"American Oncology Network, Inc.",,"2340 E Calvada Blvd, Ste 7, Pahrump, NV (36.1927, -115.9722)","2340 E Calvada Blvd, Ste 7",Pahrump,NV,FALSE,,,,,,,Disease-Specific & Episode-Based Models,,1239,
Enhancing Oncology Model,"American Oncology Network, Inc.",,"3850 S. National Ave, Suite 600, Springfield, MO (37.1451, -93.2772)","3850 S. National Ave, Suite 600",Springfield,MO,FALSE,,,,,,,Disease-Specific & Episode-Based Models,,1240,
Enhancing Oncology Model,"American Oncology Network, Inc.",,"45 Hendersonville Highway, Pisgah Forest, NC (35.273639, -82.702724)",45 Hendersonville Highway,Pisgah Forest,NC,FALSE,,,,,,,Disease-Specific & Episode-Based Models,,1241,
Enhancing Oncology Model,"American Oncology Network, Inc.",,"551 Brevard Road, Asheville, NC (35.556172, -82.600009)",551 Brevard Road,Asheville,NC,FALSE,,,,,,,Disease-Specific & Episode-Based Models,,1242,
Enhancing Oncology Model,"American Oncology Network, Inc.",,"400 Altair Parkway, Ste 3300, Westerville, OH (40.1433, -82.9413)","400 Altair Parkway, Ste 3300",Westerville,OH,FALSE,,,,,,,Disease-Specific & Episode-Based Models,,1243,
Enhancing Oncology Model,"American Oncology Network, Inc.",,"41201 Schadden Road, Suite 2, Elyria, OH (41.4064, -82.1205)","41201 Schadden Road, Suite 2",Elyria,OH,FALSE,,,,,,,Disease-Specific & Episode-Based Models,,1244,
Enhancing Oncology Model,"American Oncology Network, Inc.",,"3100 Plaza Properties Blvd, Columbus, OH (40.002759, -82.925726)",3100 Plaza Properties Blvd,Columbus,OH,FALSE,,,,,,,Disease-Specific & Episode-Based Models,,1245,
Enhancing Oncology Model,"American Oncology Network, Inc.",,"5500 N. Meadows Drive, Suite 230, Grove City, OH (39.8515, -83.0788)","5500 N. Meadows Drive, Suite 230",Grove City,OH,FALSE,,,,,,,Disease-Specific & Episode-Based Models,,1246,
Enhancing Oncology Model,"American Oncology Network, Inc.",,"16 Okatie Center Blvd S, Suite 2-201, Okatie, SC (32.2917, -80.9398)","16 Okatie Center Blvd S, Suite 2-201",Okatie,SC,FALSE,,,,,,,Disease-Specific & Episode-Based Models,,1247,
Enhancing Oncology Model,"American Oncology Network, Inc.",,"2280 Opitz Blvd, Suite 340, Woodbridge, VA (38.6353, -77.2829)","2280 Opitz Blvd, Suite 340",Woodbridge,VA,FALSE,,,,,,,Disease-Specific & Episode-Based Models,,1248,
Enhancing Oncology Model,"American Oncology Network, Inc.",,"44055 Riverside Pkwy, Ste 224, Lansdowne, VA (39.0741, -77.4778)","44055 Riverside Pkwy, Ste 224",Lansdowne,VA,FALSE,,,,,,,Disease-Specific & Episode-Based Models,,1249,
Enhancing Oncology Model,"American Oncology Network, Inc.",,"11311 Bridgeport Way SW, Suite 302 and 303, Lakewood, WA (47.1548, -122.5036)","11311 Bridgeport Way SW, Suite 302 and 303",Lakewood,WA,FALSE,,,,,,,Disease-Specific & Episode-Based Models,,1250,
Enhancing Oncology Model,"American Oncology Network, Inc.",,"1200 W Fairview St, Colfax, WA (46.869341, -117.375042)",1200 W Fairview St,Colfax,WA,FALSE,,,,,,,Disease-Specific & Episode-Based Models,,1251,
Enhancing Oncology Model,"American Oncology Network, Inc.",,"13424 E Mission Ave, Ste A, Spokane Valley, WA (47.6714, -117.2240)","13424 E Mission Ave, Ste A",Spokane Valley,WA,FALSE,,,,,,,Disease-Specific & Episode-Based Models,,1252,
Enhancing Oncology Model,"American Oncology Network, Inc.",,"143 Garden Homes Dr, Colville, WA (48.533395, -117.891251)",143 Garden Homes Dr,Colville,WA,FALSE,,,,,,,Disease-Specific & Episode-Based Models,,1253,
Enhancing Oncology Model,"American Oncology Network, Inc.",,"6001 N Mayfair St, Spokane, WA (47.712439, -117.408805)",6001 N Mayfair St,Spokane,WA,FALSE,,,,,,,Disease-Specific & Episode-Based Models,,1254,
Enhancing Oncology Model,"American Oncology Network, Inc.",,"121 W. K St, Shelton, WA (47.224934, -123.123647)",121 W. K St,Shelton,WA,FALSE,,,,,,,Disease-Specific & Episode-Based Models,,1255,
Enhancing Oncology Model,"American Oncology Network, Inc.",,"141 Lilly Rd NE, Olympia, WA (47.048884, -122.846013)",141 Lilly Rd NE,Olympia,WA,FALSE,,,,,,,Disease-Specific & Episode-Based Models,,1256,
Enhancing Oncology Model,"American Oncology Network, Inc.",,"420 McPhee Rd, SW, Suite A, Olympia, WA (47.0463, -122.9528)","420 McPhee Rd, SW, Suite A",Olympia,WA,FALSE,,,,,,,Disease-Specific & Episode-Based Models,,1257,
Enhancing Oncology Model,"American Oncology Network, Inc.",,"580 N Camino Mercado, Suite 5, Casa Grande, AZ (32.878130, -111.690120)","580 N Camino Mercado, Suite 5",Casa Grande,AZ,FALSE,,,,,,,Disease-Specific & Episode-Based Models,,1258,
Enhancing Oncology Model,"American Oncology Network, Inc.",,"414 Church St, Ste 306, Sandpoint, ID (48.2749, -116.5528)","414 Church St, Ste 306",Sandpoint,ID,FALSE,,,,,,,Disease-Specific & Episode-Based Models,,1259,
Enhancing Oncology Model,"American Oncology Network, Inc.",,"19735 Germantown Road, Suite 255, Germantown, MD (39.180220, -77.263970)","19735 Germantown Road, Suite 255",Germantown,MD,FALSE,,,,,,,Disease-Specific & Episode-Based Models,,1260,
Enhancing Oncology Model,"American Oncology Network, Inc.",,"6410 Rockledge Dr, Suite 660, Bethesda, MD (39.024310, -77.133640)","6410 Rockledge Dr, Suite 660",Bethesda,MD,FALSE,,,,,,,Disease-Specific & Episode-Based Models,,1261,
Enhancing Oncology Model,"American Oncology Network, Inc.",,"10750 Columbia Pike, Suite 501, Silver Spring, MD (39.032600, -77.004470)","10750 Columbia Pike, Suite 501",Silver Spring,MD,FALSE,,,,,,,Disease-Specific & Episode-Based Models,,1262,
Enhancing Oncology Model,"American Oncology Network, Inc.",,"3201 S. Austin Ave, Suite 315, Georgetown, TX (30.614430, -97.681230)","3201 S. Austin Ave, Suite 315",Georgetown,TX,FALSE,,,,,,,Disease-Specific & Episode-Based Models,,1263,
Enhancing Oncology Model,"American Oncology Network, Inc.",,"3110 Gracefield Rd, Silver Spring, MD (39.050630, -76.948890)",3110 Gracefield Rd,Silver Spring,MD,FALSE,,,,,,,Disease-Specific & Episode-Based Models,,1264,
Enhancing Oncology Model,"American Oncology Network, Inc.",,"106 Irving Street NW, Ste 4100, Washington, DC (38.929890, -77.013740)","106 Irving Street NW, Ste 4100",Washington,DC,FALSE,,,,,,,Disease-Specific & Episode-Based Models,,1265,
Enhancing Oncology Model,"American Oncology Network, Inc.",,"19520 Doctors Drive, Germantown, MD (39.175410, -77.268560)",19520 Doctors Drive,Germantown,MD,FALSE,,,,,,,Disease-Specific & Episode-Based Models,,1266,
Enhancing Oncology Model,"American Oncology Network, Inc.",,"1228 Deadra Drive, Lebanon, MO (37.668240, -92.636290)",1228 Deadra Drive,Lebanon,MO,FALSE,,,,,,,Disease-Specific & Episode-Based Models,,1267,
Enhancing Oncology Model,"American Oncology Network, Inc.",,"50 W. Edmonston Drive, Suite 600, Rockville, MD (39.074370, -77.136080)","50 W. Edmonston Drive, Suite 600",Rockville,MD,FALSE,,,,,,,Disease-Specific & Episode-Based Models,,1268,
Enhancing Oncology Model,"American Oncology Network, Inc.",,"135 Vision Park Blvd, Shenandoah, TX (30.1894011, -95.4660217)",135 Vision Park Blvd,Shenandoah,TX,FALSE,,,,,,,Disease-Specific & Episode-Based Models,,1269,
Enhancing Oncology Model,"American Oncology Network, Inc.",,"22999 Highway 59 N, West Tower, Suite 201, Kingwood, TX (30.0500645, -95.2577971)","22999 Highway 59 N, West Tower, Suite 201",Kingwood,TX,FALSE,,,,,,,Disease-Specific & Episode-Based Models,,1270,
Enhancing Oncology Model,"American Oncology Network, Inc.",,"603 South Conroe Medical Dr, Suite 100 & 110, Conroe, TX (30.2841296, -95.4768633)","603 South Conroe Medical Dr, Suite 100 & 110",Conroe,TX,FALSE,,,,,,,Disease-Specific & Episode-Based Models,,1271,
Enhancing Oncology Model,"American Oncology Network, Inc.",,"4242 Highway 19, Zachary, LA (30.6454382, -91.1523376)","4242 Highway 19, Suite B",Zachary,LA,FALSE,,,,,,,Disease-Specific & Episode-Based Models,,1272,
Enhancing Oncology Model,"American Oncology Network, Inc.",,"1706 Alice Street, Waycross, GA (31.2232777, -82.3501903)",1706 Alice Street,Waycross,GA,FALSE,,,,,,,Disease-Specific & Episode-Based Models,,1273,
Enhancing Oncology Model,"American Oncology Network, Inc.",,"8301 Harcourt Rd, Ste 205, Indianapolis, IN (39.9072341, -86.1950377)","8301 Harcourt Rd, Ste 205",Indianapolis,IN,FALSE,,,,,,,Disease-Specific & Episode-Based Models,,1274,
Enhancing Oncology Model,"American Oncology Network, Inc.",,"1860 Sugar Hill Rd, Suite B, Marion, NC (35.6600458, -82.027915)","1860 Sugar Hill Rd, Suite B",Marion,NC,FALSE,,,,,,,Disease-Specific & Episode-Based Models,,1275,
Enhancing Oncology Model,Texas Oncology,,"310 South Pecos, Coleman, TX (31.828809, -99.425473)",310 South Pecos,Coleman,TX,FALSE,,,,,,,Disease-Specific & Episode-Based Models,,1276,
Enhancing Oncology Model,Texas Oncology,,"3535 Victory Group Way, Frisco, TX (33.107718, -96.844378)",3535 Victory Group Way,Frisco,TX,FALSE,,,,,,,Disease-Specific & Episode-Based Models,,1277,
Enhancing Oncology Model,Texas Oncology,,"215 Chisholm Trail, Jacksboro, TX (33.230748, -98.166978)",215 Chisholm Trail,Jacksboro,TX,FALSE,,,,,,,Disease-Specific & Episode-Based Models,,1278,
Enhancing Oncology Model,Texas Oncology,,"235 W. Palm Street, Bellville, TX (29.952621, -96.259309)",235 W. Palm Street,Bellville,TX,FALSE,,,,,,,Disease-Specific & Episode-Based Models,,1279,
Enhancing Oncology Model,Texas Oncology,,"252 Matlock Road, Mansfield, TX (32.566088, -97.094558)",252 Matlock Road,Mansfield,TX,FALSE,,,,,,,Disease-Specific & Episode-Based Models,,1280,
Enhancing Oncology Model,Texas Oncology,,"4370 Medical Arts Drive, Flower Mound, TX (33.04491, -97.067756)",4370 Medical Arts Drive,Flower Mound,TX,FALSE,,,,,,,Disease-Specific & Episode-Based Models,,1281,
Enhancing Oncology Model,Texas Oncology,,"2600 Scripture Street, Denton, TX (33.219827, -97.166654)",2600 Scripture Street,Denton,TX,FALSE,,,,,,,Disease-Specific & Episode-Based Models,,1282,
Enhancing Oncology Model,Texas Oncology,,"301 Seton Parkway, Round Rock, TX (30.565741, -97.649351)",301 Seton Parkway,Round Rock,TX,FALSE,,,,,,,Disease-Specific & Episode-Based Models,,1283,
Enhancing Oncology Model,Texas Oncology,,"3070 College Street, Beaumont, TX (30.071047, -94.119275)",3070 College Street,Beaumont,TX,FALSE,,,,,,,Disease-Specific & Episode-Based Models,,1284,
Enhancing Oncology Model,Texas Oncology,,"2800 E. Broad Street, Mansfield, TX (32.568368, -97.094467)",2800 E. Broad Street,Mansfield,TX,FALSE,,,,,,,Disease-Specific & Episode-Based Models,,1285,
Enhancing Oncology Model,Texas Oncology,,"2821 E. President George Bush Hwy., Richardson, TX (32.99613, -96.66761)",2821 E. President George Bush Hwy.,Richardson,TX,FALSE,,,,,,,Disease-Specific & Episode-Based Models,,1286,
Enhancing Oncology Model,Texas Oncology,,"2829 Babcock Rd., San Antonio, TX (29.513899, -98.590713)",2829 Babcock Rd.,San Antonio,TX,FALSE,,,,,,,Disease-Specific & Episode-Based Models,,1287,
Enhancing Oncology Model,Texas Oncology,,"301 Jenny George Lane, Sweetwater, TX (32.452939, -100.396653)",301 Jenny George Lane,Sweetwater,TX,FALSE,,,,,,,Disease-Specific & Episode-Based Models,,1288,
Enhancing Oncology Model,Texas Oncology,,"3705 West 15th Street, Plano, TX (33.019972, -96.763337)",3705 West 15th Street,Plano,TX,FALSE,,,,,,,Disease-Specific & Episode-Based Models,,1289,
Enhancing Oncology Model,Texas Oncology,,"3107 Highway 71 East, Bastrop, TX (30.102732, -97.293238)",3107 Highway 71 East,Bastrop,TX,FALSE,,,,,,,Disease-Specific & Episode-Based Models,,1290,
Enhancing Oncology Model,Texas Oncology,,"3144 Horizon Road, Rockwall, TX (32.885134, -96.46705)",3144 Horizon Road,Rockwall,TX,FALSE,,,,,,,Disease-Specific & Episode-Based Models,,1291,
Enhancing Oncology Model,Texas Oncology,,"324 NW Parkway Street, Azle, TX (32.895397, -97.541095)",324 NW Parkway Street,Azle,TX,FALSE,,,,,,,Disease-Specific & Episode-Based Models,,1292,
Enhancing Oncology Model,Texas Oncology,,"3415 S. Loop 256, Palestine, TX (31.73769, -95.634834)",3415 S. Loop 256,Palestine,TX,FALSE,,,,,,,Disease-Specific & Episode-Based Models,,1293,
Enhancing Oncology Model,Texas Oncology,,"400 W. Medical Center Blvd., Webster, TX (29.542337, -95.125747)",400 W. Medical Center Blvd.,Webster,TX,FALSE,,,,,,,Disease-Specific & Episode-Based Models,,1294,
Enhancing Oncology Model,Texas Oncology,,"4201 Brown Trail, Colleyville, TX (32.873544, -97.16082)",4201 Brown Trail,Colleyville,TX,FALSE,,,,,,,Disease-Specific & Episode-Based Models,,1295,
Enhancing Oncology Model,Texas Oncology,,"3270 Joe Battle Blvd., El Paso, TX (31.789365, -106.265103)",3270 Joe Battle Blvd.,El Paso,TX,FALSE,,,,,,,Disease-Specific & Episode-Based Models,,1296,
Enhancing Oncology Model,Texas Oncology,,"3410 Worth Street, Dallas, TX (32.788241, -96.778682)",3410 Worth Street,Dallas,TX,FALSE,,,,,,,Disease-Specific & Episode-Based Models,,1297,
Enhancing Oncology Model,Texas Oncology,,"3550 N.E. Loop 286, Paris, TX (33.667713, -95.51316)",3550 N.E. Loop 286,Paris,TX,FALSE,,,,,,,Disease-Specific & Episode-Based Models,,1298,
Enhancing Oncology Model,Texas Oncology,,"3865 Childress Avenue, Mesquite, TX (32.817268, -96.62762)",3865 Childress Avenue,Mesquite,TX,FALSE,,,,,,,Disease-Specific & Episode-Based Models,,1299,
Enhancing Oncology Model,Texas Oncology,,"4708 Alliance Blvd., Plano, TX (33.014283, -96.792328)",4708 Alliance Blvd.,Plano,TX,FALSE,,,,,,,Disease-Specific & Episode-Based Models,,1300,
Enhancing Oncology Model,Texas Oncology,,"3327 Research Plaza, San Antonio, TX (29.344978, -98.437001)",3327 Research Plaza,San Antonio,TX,FALSE,,,,,,,Disease-Specific & Episode-Based Models,,1301,
Enhancing Oncology Model,Texas Oncology,,"4101 James Casey Street, Austin, TX (30.226053, -97.773561)",4101 James Casey Street,Austin,TX,FALSE,,,,,,,Disease-Specific & Episode-Based Models,,1302,
Enhancing Oncology Model,Texas Oncology,,"4215 Joe Ramsey Blvd., Greenville, TX (33.122487, -96.123918)",4215 Joe Ramsey Blvd.,Greenville,TX,FALSE,,,,,,,Disease-Specific & Episode-Based Models,,1303,
Enhancing Oncology Model,Texas Oncology,,"3537 S. Interstate 35E, Denton, TX (33.176794, -97.090846)",3537 S. Interstate 35E,Denton,TX,FALSE,,,,,,,Disease-Specific & Episode-Based Models,,1304,
Enhancing Oncology Model,Texas Oncology,,"3555 West Wheatland Road, Dallas, TX (32.648784, -96.878963)",3555 West Wheatland Road,Dallas,TX,FALSE,,,,,,,Disease-Specific & Episode-Based Models,,1305,
Enhancing Oncology Model,Texas Oncology,,"4700 N. Galloway Ave., Mesquite, TX (32.828008, -96.626061)",4700 N. Galloway Ave.,Mesquite,TX,FALSE,,,,,,,Disease-Specific & Episode-Based Models,,1306,
Enhancing Oncology Model,Texas Oncology,,"500 Medical Center Blvd., Conroe, TX (30.285493, -95.468453)",500 Medical Center Blvd.,Conroe,TX,FALSE,,,,,,,Disease-Specific & Episode-Based Models,,1307,
Enhancing Oncology Model,Texas Oncology,,"5125 Texoma Medical Center Dr., Denison, TX (33.708065, -96.585059)",5125 Texoma Medical Center Dr.,Denison,TX,FALSE,,,,,,,Disease-Specific & Episode-Based Models,,1308,
Enhancing Oncology Model,Texas Oncology,,"400 North Brown, Hamilton, TX (31.704894, -98.114066)",400 North Brown,Hamilton,TX,FALSE,,,,,,,Disease-Specific & Episode-Based Models,,1309,
Enhancing Oncology Model,Texas Oncology,,"4001 W. 15th Street, Plano, TX (33.019799, -96.76861)",4001 W. 15th Street,Plano,TX,FALSE,,,,,,,Disease-Specific & Episode-Based Models,,1310,
Enhancing Oncology Model,Texas Oncology,,"4510 Medical Center Drive, McKinney, TX (33.15957, -96.638106)",4510 Medical Center Drive,McKinney,TX,FALSE,,,,,,,Disease-Specific & Episode-Based Models,,1311,
Enhancing Oncology Model,"Arizona Oncology Associates, PC",,"13555 W McDowell Rd, Suite 105, Goodyear, AZ (33.463711, -112.351228)","13555 W McDowell Rd, Suite 105",Goodyear,AZ,FALSE,,,,,,,Disease-Specific & Episode-Based Models,,1312,
Enhancing Oncology Model,"Arizona Oncology Associates, PC",,"1315 S La Canada Dr, Green Valley, AZ (31.851066, -110.998998)",1315 S La Canada Dr,Green Valley,AZ,FALSE,,,,,,,Disease-Specific & Episode-Based Models,,1313,
Enhancing Oncology Model,"Arizona Oncology Associates, PC",,"1100 Gail Gardner Way, Prescott, AZ (34.562157, -112.488997)",1100 Gail Gardner Way,Prescott,AZ,FALSE,,,,,,,Disease-Specific & Episode-Based Models,,1314,
Enhancing Oncology Model,"Arizona Oncology Associates, PC",,"3188 N Windsong Dr, Suite A, Prescott Valley, AZ (34.588699, -112.327495)","3188 N Windsong Dr, Suite A",Prescott Valley,AZ,FALSE,,,,,,,Disease-Specific & Episode-Based Models,,1315,
Enhancing Oncology Model,"Arizona Oncology Associates, PC",,"7825 E Florentine Rd, Prescott Valley, AZ (34.587775, -112.328628)",7825 E Florentine Rd,Prescott Valley,AZ,FALSE,,,,,,,Disease-Specific & Episode-Based Models,,1316,
Enhancing Oncology Model,"Arizona Oncology Associates, PC",,"1850 E Innovation Park Dr, Oro Valley, AZ (32.432207, -110.94405)",1850 E Innovation Park Dr,Oro Valley,AZ,FALSE,,,,,,,Disease-Specific & Episode-Based Models,,1317,
Enhancing Oncology Model,"Arizona Oncology Associates, PC",,"2625 N Craycroft Rd, Suite 200, Tucson, AZ (32.254748, -110.875825)","2625 N Craycroft Rd, Suite 200",Tucson,AZ,FALSE,,,,,,,Disease-Specific & Episode-Based Models,,1318,
Enhancing Oncology Model,"Arizona Oncology Associates, PC",,"1620 W St Marys Rd, Tucson, AZ (32.229803, -111.000969)",1620 W St Marys Rd,Tucson,AZ,FALSE,,,,,,,Disease-Specific & Episode-Based Models,,1319,
Enhancing Oncology Model,"Arizona Oncology Associates, PC",,"1845 W Orange Grove Rd, Bldg 2, Tucson, AZ (32.322018, -111.005156)","1845 W Orange Grove Rd, Bldg 2",Tucson,AZ,FALSE,,,,,,,Disease-Specific & Episode-Based Models,,1320,
Enhancing Oncology Model,"Arizona Oncology Associates, PC",,"2951 N Swan Rd, Suite 155, Tucson, AZ (32.260357, -110.893071)","2951 N Swan Rd, Suite 155",Tucson,AZ,FALSE,,,,,,,Disease-Specific & Episode-Based Models,,1321,
Enhancing Oncology Model,"Arizona Oncology Associates, PC",,"6567 E Carondelet Dr, Suite 185, Tucson, AZ (32.22688, -110.853545)","6567 E Carondelet Dr, Suite 185",Tucson,AZ,FALSE,,,,,,,Disease-Specific & Episode-Based Models,,1322,
Enhancing Oncology Model,"Arizona Oncology Associates, PC",,"2070 W Rudasill Rd, Suite 110, Tucson, AZ (32.315949, -111.011332)","2070 W Rudasill Rd, Suite 110",Tucson,AZ,FALSE,,,,,,,Disease-Specific & Episode-Based Models,,1323,
Enhancing Oncology Model,"Arizona Oncology Associates, PC",,"603 N Wilmot Rd, Suite 151, Tucson, AZ (32.229789, -110.858582)","603 N Wilmot Rd, Suite 151",Tucson,AZ,FALSE,,,,,,,Disease-Specific & Episode-Based Models,,1324,
Enhancing Oncology Model,"Arizona Oncology Associates, PC",,"2070 W Rudasill Rd, Suite 130, Tucson, AZ (32.315949, -111.011332)","2070 W Rudasill Rd, Suite 130",Tucson,AZ,FALSE,,,,,,,Disease-Specific & Episode-Based Models,,1325,
Enhancing Oncology Model,"Arizona Oncology Associates, PC",,"2625 N Craycroft Rd, Suite 100, Tucson, AZ (32.254748, -110.875825)","2625 N Craycroft Rd, Suite 100",Tucson,AZ,FALSE,,,,,,,Disease-Specific & Episode-Based Models,,1326,
Enhancing Oncology Model,"Arizona Oncology Associates, PC",,"1845 W Orange Grove Rd, Bldg 1, Tucson, AZ (32.322018, -111.005156)","1845 W Orange Grove Rd, Bldg 1",Tucson,AZ,FALSE,,,,,,,Disease-Specific & Episode-Based Models,,1327,
Enhancing Oncology Model,"Arizona Oncology Associates, PC",,"10350 East Drexel Rd, Suite 204, Tucson, AZ (32.146006, -110.771799)","10350 East Drexel Rd, Suite 204",Tucson,AZ,FALSE,,,,,,,Disease-Specific & Episode-Based Models,,1328,
Enhancing Oncology Model,"Arizona Oncology Associates, PC",,"10350 East Drexel Rd, Suite 210, Tucson, AZ (32.146006, -110.771799)","10350 East Drexel Rd, Suite 210",Tucson,AZ,FALSE,,,,,,,Disease-Specific & Episode-Based Models,,1329,
Enhancing Oncology Model,Appalachian Regional Healthcare,,"110 Medical Center Drive, Hazard, KY (37.292881, -83.19055)",110 Medical Center Drive,Hazard,KY,FALSE,,,,,,,Disease-Specific & Episode-Based Models,,1330,
Enhancing Oncology Model,Appalachian Regional Healthcare,,"306 Hospital Drive, Suite 100, South Williamson, KY (37.67638, -82.297066)","306 Hospital Drive, Suite 100",South Williamson,KY,FALSE,,,,,,,Disease-Specific & Episode-Based Models,,1331,
Enhancing Oncology Model,Appalachian Regional Healthcare,,"37 Ball Park Road, Harlan, KY (36.810303, -83.312571)",37 Ball Park Road,Harlan,KY,FALSE,,,,,,,Disease-Specific & Episode-Based Models,,1332,
Enhancing Oncology Model,Appalachian Regional Healthcare,,"250 Stanaford Road, Suite 209, Beckley, WV (37.797439, -81.170002)","250 Stanaford Road, Suite 209",Beckley,WV,FALSE,,,,,,,Disease-Specific & Episode-Based Models,,1333,
Enhancing Oncology Model,University of Alabama Health Services Foundation,,"2000 6th Avenue South, Birmingham, AL (33.507951, -86.800298)",2000 6th Avenue South,Birmingham,AL,FALSE,,,,,,,Disease-Specific & Episode-Based Models,,1334,
Enhancing Oncology Model,Texas Oncology,,"4301 College Drive, Vernon, TX (34.160799, -99.314962)",4301 College Drive,Vernon,TX,FALSE,,,,,,,Disease-Specific & Episode-Based Models,,1335,
Enhancing Oncology Model,Texas Oncology,,"4352 N. Josey Lane, Carrollton, TX (33.02834, -96.883612)",4352 N. Josey Lane,Carrollton,TX,FALSE,,,,,,,Disease-Specific & Episode-Based Models,,1336,
Enhancing Oncology Model,Texas Oncology,,"4450 Sojourn Drive, Addison, TX (32.98201, -96.835277)",4450 Sojourn Drive,Addison,TX,FALSE,,,,,,,Disease-Specific & Episode-Based Models,,1337,
Enhancing Oncology Model,Texas Oncology,,"4461 Coit Road, Frisco, TX (33.114499, -96.769724)",4461 Coit Road,Frisco,TX,FALSE,,,,,,,Disease-Specific & Episode-Based Models,,1338,
Enhancing Oncology Model,Texas Oncology,,"450 W. Medical Center Blvd., Webster, TX (29.541928, -95.126716)",450 W. Medical Center Blvd.,Webster,TX,FALSE,,,,,,,Disease-Specific & Episode-Based Models,,1339,
Enhancing Oncology Model,Texas Oncology,,"500 W. 3rd Street, Odessa, TX (31.844829, -102.373053)",500 W. 3rd Street,Odessa,TX,FALSE,,,,,,,Disease-Specific & Episode-Based Models,,1340,
Enhancing Oncology Model,Texas Oncology,,"500 W. Main Street, Lewisville, TX (33.044381, -97.004532)",500 W. Main Street,Lewisville,TX,FALSE,,,,,,,Disease-Specific & Episode-Based Models,,1341,
Enhancing Oncology Model,Texas Oncology,,"979 Don Floyd Drive, Midothian, TX (32.4682449, -96.9853202)",979 Don Floyd Drive,Midothian,TX,FALSE,,,,,,,Disease-Specific & Episode-Based Models,,1342,
Enhancing Oncology Model,Texas Oncology,,"497 10th Street, Floresville, TX (29.158129, -98.171753)",497 10th Street,Floresville,TX,FALSE,,,,,,,Disease-Specific & Episode-Based Models,,1343,
Enhancing Oncology Model,Texas Oncology,,"6130 W. Parker Road, Plano, TX (33.044985, -96.834149)",6130 W. Parker Road,Plano,TX,FALSE,,,,,,,Disease-Specific & Episode-Based Models,,1344,
Enhancing Oncology Model,Texas Oncology,,"6500 Harris Parkway, Fort Worth, TX (32.658198, -97.42078)",6500 Harris Parkway,Fort Worth,TX,FALSE,,,,,,,Disease-Specific & Episode-Based Models,,1345,
Enhancing Oncology Model,Texas Oncology,,"7200 State Highway 161, Irving, TX (32.90404, -96.957099)",7200 State Highway 161,Irving,TX,FALSE,,,,,,,Disease-Specific & Episode-Based Models,,1346,
Enhancing Oncology Model,Texas Oncology,,"7848 Gateway East, El Paso, TX (31.755707, -106.3551167)",7848 Gateway East,El Paso,TX,FALSE,,,,,,,Disease-Specific & Episode-Based Models,,1347,
Enhancing Oncology Model,Texas Oncology,,"500 South Henderson Street, Fort Worth, TX (32.739614, -97.338238)",500 South Henderson Street,Fort Worth,TX,FALSE,,,,,,,Disease-Specific & Episode-Based Models,,1348,
Enhancing Oncology Model,Texas Oncology,,"501 W. Medical Center Blvd., Webster, TX (29.539554, -95.127249)",501 W. Medical Center Blvd.,Webster,TX,FALSE,,,,,,,Disease-Specific & Episode-Based Models,,1349,
Enhancing Oncology Model,Texas Oncology,,"506 S. State Hwy 37, Mt. Vernon, TX (33.188916, -95.225211)",506 S. State Hwy 37,Mt. Vernon,TX,FALSE,,,,,,,Disease-Specific & Episode-Based Models,,1350,
Enhancing Oncology Model,Texas Oncology,,"506 W. Windcrest Street, Fredericksburg, TX (30.264146, -98.88442)",506 W. Windcrest Street,Fredericksburg,TX,FALSE,,,,,,,Disease-Specific & Episode-Based Models,,1351,
Enhancing Oncology Model,Texas Oncology,,"5206 Research Drive, San Antonio, TX (29.540299, -98.587149)",5206 Research Drive,San Antonio,TX,FALSE,,,,,,,Disease-Specific & Episode-Based Models,,1352,
Enhancing Oncology Model,Texas Oncology,,"5236 W. University Dr., McKinney, TX (33.221073, -96.681604)",5236 W. University Dr.,McKinney,TX,FALSE,,,,,,,Disease-Specific & Episode-Based Models,,1353,
Enhancing Oncology Model,Texas Oncology,,"5400 Kell West Blvd., Wichita Falls, TX (33.872143, -98.587365)",5400 Kell West Blvd.,Wichita Falls,TX,FALSE,,,,,,,Disease-Specific & Episode-Based Models,,1354,
Enhancing Oncology Model,Texas Oncology,,"610 31st Street, Hondo, TX (29.335985, -99.135328)",610 31st Street,Hondo,TX,FALSE,,,,,,,Disease-Specific & Episode-Based Models,,1355,
Enhancing Oncology Model,Texas Oncology,,"8160 Walnut Hill Lane, Dallas, TX (32.879541, -96.761274)",8160 Walnut Hill Lane,Dallas,TX,FALSE,,,,,,,Disease-Specific & Episode-Based Models,,1356,
Enhancing Oncology Model,Texas Oncology,,"5858 W. Main Street, Frisco, TX (33.153536, -96.836859)",5858 W. Main Street,Frisco,TX,FALSE,,,,,,,Disease-Specific & Episode-Based Models,,1357,
Enhancing Oncology Model,Texas Oncology,,"5920 W. Parker Road, Plano, TX (33.044703, -96.824136)",5920 W. Parker Road,Plano,TX,FALSE,,,,,,,Disease-Specific & Episode-Based Models,,1358,
Enhancing Oncology Model,Texas Oncology,,"6204 Balcones Drive, Austin, TX (30.344843, -97.752742)",6204 Balcones Drive,Austin,TX,FALSE,,,,,,,Disease-Specific & Episode-Based Models,,1359,
Enhancing Oncology Model,Texas Oncology,,"6300 W. Parker Road, Plano, TX (33.044986, -96.837195)",6300 W. Parker Road,Plano,TX,FALSE,,,,,,,Disease-Specific & Episode-Based Models,,1360,
Enhancing Oncology Model,Texas Oncology,,"6520 Horizon Circle, Waco, TX (31.484515, -97.174161)",6520 Horizon Circle,Waco,TX,FALSE,,,,,,,Disease-Specific & Episode-Based Models,,1361,
Enhancing Oncology Model,Texas Oncology,,"694 Hill Country Drive, Kerville, TX (30.043054, -99.150796)",694 Hill Country Drive,Kerville,TX,FALSE,,,,,,,Disease-Specific & Episode-Based Models,,1362,
Enhancing Oncology Model,Texas Oncology,,"6957 W. Plano Parkway, Plano, TX (33.016124, -96.777)",6957 W. Plano Parkway,Plano,TX,FALSE,,,,,,,Disease-Specific & Episode-Based Models,,1363,
Enhancing Oncology Model,Texas Oncology,,"815 S. Washington Ave., Marshall, TX (32.537729, -94.367943)",815 S. Washington Ave.,Marshall,TX,FALSE,,,,,,,Disease-Specific & Episode-Based Models,,1364,
Enhancing Oncology Model,Texas Oncology,,"6807 Emmett F Lowry Expy., Texas City, TX (29.394372, -94.987014)",6807 Emmett F Lowry Expy.,Texas City,TX,FALSE,,,,,,,Disease-Specific & Episode-Based Models,,1365,
Enhancing Oncology Model,Texas Oncology,,"690 North 14th Street, Beaumont, TX (30.087441, -94.133196)",690 North 14th Street,Beaumont,TX,FALSE,,,,,,,Disease-Specific & Episode-Based Models,,1366,
Enhancing Oncology Model,Texas Oncology,,"9180 Pinecroft Drive, The Woodlands, TX (30.175499, -95.453945)",9180 Pinecroft Drive,The Woodlands,TX,FALSE,,,,,,,Disease-Specific & Episode-Based Models,,1367,
Enhancing Oncology Model,Texas Oncology,,"920 Medical Plaza Drive, The Woodlands, TX (30.174036, -95.452598)",920 Medical Plaza Drive,The Woodlands,TX,FALSE,,,,,,,Disease-Specific & Episode-Based Models,,1368,
Enhancing Oncology Model,Texas Oncology,,"7150 N. President George Bush Hwy., Garland, TX (32.980591, -96.66118)",7150 N. President George Bush Hwy.,Garland,TX,FALSE,,,,,,,Disease-Specific & Episode-Based Models,,1369,
Enhancing Oncology Model,Texas Oncology,,"7515 South Main St., Houston, TX (29.69974, -95.409937)",7515 South Main St.,Houston,TX,FALSE,,,,,,,Disease-Specific & Episode-Based Models,,1370,
Enhancing Oncology Model,Texas Oncology,,"800 West Central Texas Expressway, Harker Heights, TX (31.072579, -97.681706)",800 West Central Texas Expressway,Harker Heights,TX,FALSE,,,,,,,Disease-Specific & Episode-Based Models,,1371,
Enhancing Oncology Model,Texas Oncology,,"9750 Hillwood Parkway, Keller, TX (32.936564, -97.240981)",9750 Hillwood Parkway,Keller,TX,FALSE,,,,,,,Disease-Specific & Episode-Based Models,,1372,
Enhancing Oncology Model,Texas Oncology,,"7400 Fannin St., Houston, TX (29.69448, -95.401204)",7400 Fannin St.,Houston,TX,FALSE,,,,,,,Disease-Specific & Episode-Based Models,,1373,
Enhancing Oncology Model,Texas Oncology,,"7777 Forest Lane, Dallas, TX (32.911775, -96.773229)",7777 Forest Lane,Dallas,TX,FALSE,,,,,,,Disease-Specific & Episode-Based Models,,1374,
Enhancing Oncology Model,Texas Oncology,,"8196 Walnut Hill Lane, Dallas, TX (32.879541, -96.761274)",8196 Walnut Hill Lane,Dallas,TX,FALSE,,,,,,,Disease-Specific & Episode-Based Models,,1375,
Enhancing Oncology Model,Texas Oncology,,"906 West Randol Mill Road, Arlington, TX (32.749349, -97.118964)",906 West Randol Mill Road,Arlington,TX,FALSE,,,,,,,Disease-Specific & Episode-Based Models,,1376,
Enhancing Oncology Model,Texas Oncology,,"910 E. Houston St., Tyler, TX (32.343987, -95.29135)",910 E. Houston St.,Tyler,TX,FALSE,,,,,,,Disease-Specific & Episode-Based Models,,1377,
Enhancing Oncology Model,Texas Oncology,,"911 Foster Lane, Weatherford, TX (32.749033, -97.78703)",911 Foster Lane,Weatherford,TX,FALSE,,,,,,,Disease-Specific & Episode-Based Models,,1378,
Enhancing Oncology Model,Texas Oncology,,"7950 Floyd Curl Drive, San Antonio, TX (29.512542, -98.575708)",7950 Floyd Curl Drive,San Antonio,TX,FALSE,,,,,,,Disease-Specific & Episode-Based Models,,1379,
Enhancing Oncology Model,Texas Oncology,,"802 Medical Circle, Longview, TX (32.534134, -94.730708)",802 Medical Circle,Longview,TX,FALSE,,,,,,,Disease-Specific & Episode-Based Models,,1380,
Enhancing Oncology Model,Texas Oncology,,"805 West 37th, Austin, TX (30.303627, -97.742604)",805 West 37th,Austin,TX,FALSE,,,,,,,Disease-Specific & Episode-Based Models,,1381,
Enhancing Oncology Model,Texas Oncology,,"701 McClintic Drive, Groesbeck, TX (31.530424, -96.530423)",701 McClintic Drive,Groesbeck,TX,FALSE,,,,,,,Disease-Specific & Episode-Based Models,,1382,
Enhancing Oncology Model,Texas Oncology,,"8315 Walnut Hill Lane, Dallas, TX (32.884692, -96.761039)",8315 Walnut Hill Lane,Dallas,TX,FALSE,,,,,,,Disease-Specific & Episode-Based Models,,1383,
Enhancing Oncology Model,Texas Oncology,,"901 W. 38th Street, Autsin, TX (30.3046087, -97.7450515)",901 W. 38th Street,Autsin,TX,FALSE,,,,,,,Disease-Specific & Episode-Based Models,,1384,
Enhancing Oncology Model,Texas Oncology,,"9100 Lakeview Pkwy., Rowlett, TX (32.918868, -96.513189)",9100 Lakeview Pkwy.,Rowlett,TX,FALSE,,,,,,,Disease-Specific & Episode-Based Models,,1385,
Enhancing Oncology Model,Texas Oncology,,"400 Rosalind Redfern Grover Pkwy., Midland, TX (31.997566, -102.100201)",400 Rosalind Redfern Grover Pkwy.,Midland,TX,FALSE,,,,,,,Disease-Specific & Episode-Based Models,,1386,
Enhancing Oncology Model,Texas Oncology,,"925 Gessner Road, Houston, TX (29.781791, -95.54515)",925 Gessner Road,Houston,TX,FALSE,,,,,,,Disease-Specific & Episode-Based Models,,1387,
Enhancing Oncology Model,Texas Oncology,,"1507 W. Main Street, Gatesville, TX (31.435215, -97.779162)",1507 W. Main Street,Gatesville,TX,FALSE,,,,,,,Disease-Specific & Episode-Based Models,,1388,
Enhancing Oncology Model,"Shenandoah Oncology, P.C.",,"400 Campus Blvd, Suite 100, Winchester, VA (39.197429, -78.189535)","400 Campus Blvd, Suite 100",Winchester,VA,FALSE,,,,,,,Disease-Specific & Episode-Based Models,,1389,
Enhancing Oncology Model,MERCY CLINIC FORT SMITH COMMUNITIES,,"7001 Rogers Ave, Fort Smith, AR (35.355597, -94.353961)",7001 Rogers Ave,Fort Smith,AR,FALSE,,,,,,,Disease-Specific & Episode-Based Models,,1390,
Enhancing Oncology Model,CANCER SPECIALISTS LLC,,"2 Shircliff Way Suite 800, Jacksonville, FL (30.307576, -81.688797)",2 Shircliff Way Suite 800,Jacksonville,FL,FALSE,,,,,,,Disease-Specific & Episode-Based Models,,1391,
Enhancing Oncology Model,CANCER SPECIALISTS LLC,,"121 Whitehall Drive, St Augustine, FL (29.856383, -81.331052)",121 Whitehall Drive,St Augustine,FL,FALSE,,,,,,,Disease-Specific & Episode-Based Models,,1392,
Enhancing Oncology Model,CANCER SPECIALISTS LLC,,"5742 Booth Road Suite A, Jacksonville, FL (30.287327, -81.605528)",5742 Booth Road Suite A,Jacksonville,FL,FALSE,,,,,,,Disease-Specific & Episode-Based Models,,1393,
Enhancing Oncology Model,Edwards Comprehensive Cancer Center@ Cabell Huntington Hospital,,"1600 Hal Greer Boulevard, Huntington, WV (38.404513, -82.427897)",1600 Hal Greer Boulevard,Huntington,WV,FALSE,,,,,,,Disease-Specific & Episode-Based Models,,1394,
Enhancing Oncology Model,CANCER SPECIALISTS LLC,,"14546 Old St Augustine Road, Bldg 1  Suite 317, Jacksonville, FL (30.138748, -81.535283)","14546 Old St Augustine Road, Bldg 1 Suite 317",Jacksonville,FL,FALSE,,,,,,,Disease-Specific & Episode-Based Models,,1395,
Enhancing Oncology Model,CANCER SPECIALISTS LLC,,"1375 Roberts Drive Suite 103, Jacksonville Beach, FL (30.273418, -81.399298)",1375 Roberts Drive Suite 103,Jacksonville Beach,FL,FALSE,,,,,,,Disease-Specific & Episode-Based Models,,1396,
Enhancing Oncology Model,CANCER SPECIALISTS LLC,,"2370 Market Drive, Fleming Island, FL (30.085356, -81.715334)",2370 Market Drive,Fleming Island,FL,FALSE,,,,,,,Disease-Specific & Episode-Based Models,,1397,
Enhancing Oncology Model,CANCER SPECIALISTS LLC,,"1658 St Vincent's Way Suite 230, Middleburg, FL (30.109881, -81.832623)",1658 St Vincent's Way Suite 230,Middleburg,FL,FALSE,,,,,,,Disease-Specific & Episode-Based Models,,1398,
Enhancing Oncology Model,CANCER SPECIALISTS LLC,,"7015 AC Skinner Parkway Building 100, Jacksonville, FL (30.249728, -81.580067)",7015 AC Skinner Parkway Building 100,Jacksonville,FL,FALSE,,,,,,,Disease-Specific & Episode-Based Models,,1399,
Enhancing Oncology Model,CANCER SPECIALISTS LLC,,"159 North 3rd Street Suite E, Macclenny, FL (30.285999, -82.119408)",159 North 3rd Street Suite E,Macclenny,FL,FALSE,,,,,,,Disease-Specific & Episode-Based Models,,1400,
Enhancing Oncology Model,CANCER SPECIALISTS LLC,,"70 Turin Terrace Suite 210, St Augustine, FL (29.959959, -81.492236)",70 Turin Terrace Suite 210,St Augustine,FL,FALSE,,,,,,,Disease-Specific & Episode-Based Models,,1401,
Enhancing Oncology Model,CANCER SPECIALISTS LLC,,"725 Skymarks Drive Suite 10-1, Jacksonville, FL (30.480807, -81.634958)",725 Skymarks Drive Suite 10-1,Jacksonville,FL,FALSE,,,,,,,Disease-Specific & Episode-Based Models,,1402,
Enhancing Oncology Model,CANCER SPECIALISTS LLC,,"80 Pinnacles Drive Suite 700, Palm Coast, FL (29.47432, -81.191806)",80 Pinnacles Drive Suite 700,Palm Coast,FL,FALSE,,,,,,,Disease-Specific & Episode-Based Models,,1403,
Enhancing Oncology Model,Illinois Cancer Specialists,,"1555 Barrington Rd, Suite 235, Hoffman Estates, IL (42.052346, -88.141387)","1555 Barrington Rd, Suite 235",Hoffman Estates,IL,FALSE,,,,,,,Disease-Specific & Episode-Based Models,,1404,
Enhancing Oncology Model,"Virginia Cancer Specialists, P.C.",,"4660 Kenmore Avenue, Suite 1018, Alexandria, VA (38.828211, -77.110358)","4660 Kenmore Avenue, Suite 1018",Alexandria,VA,FALSE,,,,,,,Disease-Specific & Episode-Based Models,,1406,
Enhancing Oncology Model,"Virginia Cancer Specialists, P.C.",,"44035 Riverside Pkwy, Suite 300, Leesburg, VA (39.075166, -77.478425)","44035 Riverside Pkwy, Suite 300",Leesburg,VA,FALSE,,,,,,,Disease-Specific & Episode-Based Models,,1411,
Enhancing Oncology Model,"Virginia Cancer Specialists, P.C.",,"1860 Town Center Dr, Ste 460, Reston, VA (38.961887, -77.365984)","1860 Town Center Dr, Ste 460",Reston,VA,FALSE,,,,,,,Disease-Specific & Episode-Based Models,,1412,
Enhancing Oncology Model,"Virginia Cancer Specialists, P.C.",,"210 West Shirley Ave, Ste 192, Warrenton, VA (38.711472, -77.805673)","210 West Shirley Ave, Ste 192",Warrenton,VA,FALSE,,,,,,,Disease-Specific & Episode-Based Models,,1414,
Enhancing Oncology Model,"Virginia Cancer Specialists, P.C.",,"210 West Shirley Ave, Ste 111, Warrenton, VA (38.711472, -77.805673)","210 West Shirley Ave, Ste 111",Warrenton,VA,FALSE,,,,,,,Disease-Specific & Episode-Based Models,,1415,
Enhancing Oncology Model,"Virginia Cancer Specialists, P.C.",,"227 S Washington St, Ste 100, Alexandria, VA (38.803647, -77.047417)","227 S Washington St, Ste 100",Alexandria,VA,FALSE,,,,,,,Disease-Specific & Episode-Based Models,,1416,
Enhancing Oncology Model,"Virginia Cancer Specialists, P.C.",,"44035 Riverside Pkwy, Ste 310, Leesburg, VA (39.0752497, -77.4810588)","44035 Riverside Pkwy, Ste 310",Leesburg,VA,FALSE,,,,,,,Disease-Specific & Episode-Based Models,,,
Enhancing Oncology Model,"Virginia Cancer Specialists, P.C.",,"8613 Route #29, #101, Fairfax, VA (38.8722135, -77.244753)","8613 Route #29, #101",Fairfax,VA,FALSE,,,,,,,Disease-Specific & Episode-Based Models,,,
Enhancing Oncology Model,"Virginia Cancer Specialists, P.C.",,"1100 N Glebe Road, Suite 1600, Arlington, VA (38.8834481, -77.1206189)","1100 N Glebe Road, Suite 1600",Arlington,VA,FALSE,,,,,,,Disease-Specific & Episode-Based Models,,,
Enhancing Oncology Model,"Virginia Cancer Specialists, P.C.",,"3700 Joseph Siewick Dr, Ste 408, Fairfax, VA (38.8836716, -77.3840738)","3700 Joseph Siewick Dr, Ste 408",Fairfax,VA,FALSE,,,,,,,Disease-Specific & Episode-Based Models,,,
Enhancing Oncology Model,"Virginia Cancer Specialists, P.C.",,"9450 Innovation Drive, Manassas, VA (38.7508429, -77.5269901)",9450 Innovation Drive,Manassas,VA,FALSE,,,,,,,Disease-Specific & Episode-Based Models,,,
Enhancing Oncology Model,"Virginia Cancer Specialists, P.C.",,"2280 Opitz Blvd, Ste 130, Woodbridge, VA (38.6349036, -77.285535)","2280 Opitz Blvd, Ste 130",Woodbridge,VA,FALSE,,,,,,,Disease-Specific & Episode-Based Models,,,
Enhancing Oncology Model,HonorHealth Cancer care,,"3645 S. Rome St. , Suite 209, Gilbert, AZ (33.284609, -111.749969)","3645 S. Rome St. , Suite 209",Gilbert,AZ,FALSE,,,,,,,Disease-Specific & Episode-Based Models,,1417,
Enhancing Oncology Model,HonorHealth Cancer care,,"10320 W. McDowell Rd., #H8025, Avondale, AZ (33.465607, -112.282204)","10320 W. McDowell Rd., #H8025",Avondale,AZ,FALSE,,,,,,,Disease-Specific & Episode-Based Models,,1418,
Enhancing Oncology Model,HonorHealth Cancer care,,"20745 N. Scottsdale Rd., #115, Scottsdale, AZ (33.675483, -111.923589)","20745 N. Scottsdale Rd., #115",Scottsdale,AZ,FALSE,,,,,,,Disease-Specific & Episode-Based Models,,1419,
Enhancing Oncology Model,HonorHealth Cancer care,,"1110 S. Dobson Rd., #1, Chandler, AZ (33.289758, -111.878012)","1110 S. Dobson Rd., #1",Chandler,AZ,FALSE,,,,,,,Disease-Specific & Episode-Based Models,,1420,
Enhancing Oncology Model,HonorHealth Cancer care,,"7695 S. Research Dr., Tempe, AZ (33.347304, -111.894965)",7695 S. Research Dr.,Tempe,AZ,FALSE,,,,,,,Disease-Specific & Episode-Based Models,,1421,
Enhancing Oncology Model,HonorHealth Cancer care,,"5750 W. Thunderbird Rd., #C300, Glendale, AZ (33.612642, -112.182045)","5750 W. Thunderbird Rd., #C300",Glendale,AZ,FALSE,,,,,,,Disease-Specific & Episode-Based Models,,1422,
Enhancing Oncology Model,HonorHealth Cancer care,,"10197 N 92nd Street, #101, Scottsdale, AZ (33.578224, -111.878785)","10197 N 92nd Street, #101",Scottsdale,AZ,FALSE,,,,,,,Disease-Specific & Episode-Based Models,,1423,
Enhancing Oncology Model,HonorHealth Cancer care,,"750 S. Ironwood Dr., #102, Apache Junction, AZ (33.408513, -111.563739)","750 S. Ironwood Dr., #102",Apache Junction,AZ,FALSE,,,,,,,Disease-Specific & Episode-Based Models,,1424,
Enhancing Oncology Model,HonorHealth Cancer care,,"19646 N. 27th Avenue, #301, Phoenix, AZ (33.665378, -112.118338)","19646 N. 27th Avenue, #301",Phoenix,AZ,FALSE,,,,,,,Disease-Specific & Episode-Based Models,,1425,
Enhancing Oncology Model,HonorHealth Cancer care,,"10460 N. 92nd Street, #200 & #400, Scottsdale, AZ (33.580895, -111.883219)","10460 N. 92nd Street, #200 & #400",Scottsdale,AZ,FALSE,,,,,,,Disease-Specific & Episode-Based Models,,1426,
Enhancing Oncology Model,Self Medical Group,,"1325 Spring Street, Greenwood, SC (34.175238, -82.156707)",1325 Spring Street,Greenwood,SC,FALSE,,,,,,,Disease-Specific & Episode-Based Models,,1427,
Enhancing Oncology Model,University of Alabama Health Services Foundation,,"619 19th Street S, Birmingham, AL (33.533614, -86.704734)",619 19th Street S,Birmingham,AL,FALSE,,,,,,,Disease-Specific & Episode-Based Models,,1428,
Enhancing Oncology Model,University of Alabama Health Services Foundation,,"2145 Bonner Way, Suite 200, Birmingham, AL (33.413432, -86.760058)","2145 Bonner Way, Suite 200",Birmingham,AL,FALSE,,,,,,,Disease-Specific & Episode-Based Models,,1429,
Enhancing Oncology Model,"Vidant Medical Group, LLC",,"524 Moye Blvd, Greenville, NC (35.611137, -77.401283)",524 Moye Blvd,Greenville,NC,FALSE,,,,,,,Disease-Specific & Episode-Based Models,,1430,
Enhancing Oncology Model,"Vidant Medical Group, LLC",,"1209 Brown Street, Washington, NC (35.550746, -77.03841)",1209 Brown Street,Washington,NC,FALSE,,,,,,,Disease-Specific & Episode-Based Models,,1431,
Enhancing Oncology Model,Bozeman Health Deaconess Hospital,,"915 Highland Blvd, Bozeman, MT (45.670059, -111.018981)",915 Highland Blvd,Bozeman,MT,FALSE,,,,,,,Disease-Specific & Episode-Based Models,,1432,
Enhancing Oncology Model,Bozeman Health Deaconess Hospital,,"931 Highland Blvd, Bozeman, MT (45.670521, -111.020201)",931 Highland Blvd,Bozeman,MT,FALSE,,,,,,,Disease-Specific & Episode-Based Models,,1433,
Enhancing Oncology Model,HonorHealth Cancer care,,"9250 N. 3rd Street, #3010, Phoenix, AZ (33.570363, -112.070173)","9250 N. 3rd Street, #3010",Phoenix,AZ,FALSE,,,,,,,Disease-Specific & Episode-Based Models,,1434,
Enhancing Oncology Model,HonorHealth Cancer care,,"3501 N. Scottsdale Rd., #300, Scottsdale, AZ (33.488992, -111.925436)","3501 N. Scottsdale Rd., #300",Scottsdale,AZ,FALSE,,,,,,,Disease-Specific & Episode-Based Models,,1435,
Enhancing Oncology Model,HonorHealth Cancer care,,"14674 W. Mountain View Blvd., #105, Surprise, AZ (33.655481, -112.376797)","14674 W. Mountain View Blvd., #105",Surprise,AZ,FALSE,,,,,,,Disease-Specific & Episode-Based Models,,1436,
Enhancing Oncology Model,HonorHealth Cancer care,,"2222 E. Highland Ave. #400, Phoenix, AZ (33.506355, -112.033409)",2222 E. Highland Ave. #400,Phoenix,AZ,FALSE,,,,,,,Disease-Specific & Episode-Based Models,,1437,
Enhancing Oncology Model,HonorHealth Cancer care,,"3648 W. Anthem Way, A100, Anthem, AZ (33.86722, -112.136594)","3648 W. Anthem Way, A100",Anthem,AZ,FALSE,,,,,,,Disease-Specific & Episode-Based Models,,1438,
Enhancing Oncology Model,HonorHealth Cancer care,,"6716 E. Palisades Blvd., #103, Fountain Hills, AZ (33.487717, -111.935989)","6716 E. Palisades Blvd., #103",Fountain Hills,AZ,FALSE,,,,,,,Disease-Specific & Episode-Based Models,,1439,
Enhancing Oncology Model,Regional Cancer Care Associates LLC,,"326 Professional View Drive, Freehold, NJ (40.233299, -74.318969)",326 Professional View Drive,Freehold,NJ,FALSE,,,,,,,Disease-Specific & Episode-Based Models,,1440,
Enhancing Oncology Model,Regional Cancer Care Associates LLC,,"723 N. Beers Street, Holmdel, NJ (40.405274, -74.193535)",723 N. Beers Street,Holmdel,NJ,FALSE,,,,,,,Disease-Specific & Episode-Based Models,,1441,
Enhancing Oncology Model,Regional Cancer Care Associates LLC,,"40 Bey Lea Rd Suite A202, Toms River, NJ (39.990618, -74.201608)",40 Bey Lea Rd Suite A202,Toms River,NJ,FALSE,,,,,,,Disease-Specific & Episode-Based Models,,1442,
Enhancing Oncology Model,Regional Cancer Care Associates LLC,,"795 Franklin Avenue, Franklin Lakes, NJ (41.022414, -74.204446)",795 Franklin Avenue,Franklin Lakes,NJ,FALSE,,,,,,,Disease-Specific & Episode-Based Models,,1443,
Enhancing Oncology Model,Regional Cancer Care Associates LLC,,"92 2nd St, Hackensack, NJ (40.884596, -74.053971)",92 2nd St,Hackensack,NJ,FALSE,,,,,,,Disease-Specific & Episode-Based Models,,1444,
Enhancing Oncology Model,Regional Cancer Care Associates LLC,,"260 Old Hook Road, Suite 301, Westwood, NJ (40.983911, -74.015116)","260 Old Hook Road, Suite 301",Westwood,NJ,FALSE,,,,,,,Disease-Specific & Episode-Based Models,,1445,
Enhancing Oncology Model,Regional Cancer Care Associates LLC,,"155 State Street, Hackensack, NJ (40.883547, -74.045392)",155 State Street,Hackensack,NJ,FALSE,,,,,,,Disease-Specific & Episode-Based Models,,1446,
Enhancing Oncology Model,Regional Cancer Care Associates LLC,,"7650 River Road, 2nd Floor, North Bergen, NJ (40.795818, -73.996731)","7650 River Road, 2nd Floor",North Bergen,NJ,FALSE,,,,,,,Disease-Specific & Episode-Based Models,,1447,
Enhancing Oncology Model,Regional Cancer Care Associates LLC,,"57 Kent Road, Howell, NJ (40.13322, -74.227095)",57 Kent Road,Howell,NJ,FALSE,,,,,,,Disease-Specific & Episode-Based Models,,1448,
Enhancing Oncology Model,Regional Cancer Care Associates LLC,,"180 White Road, Little Silver, NJ (40.335554, -74.056867)",180 White Road,Little Silver,NJ,FALSE,,,,,,,Disease-Specific & Episode-Based Models,,1449,
Enhancing Oncology Model,Regional Cancer Care Associates LLC,,"2177 Oak Tree Road, Suite 104, Edison, NJ (40.576743, -74.384581)","2177 Oak Tree Road, Suite 104",Edison,NJ,FALSE,,,,,,,Disease-Specific & Episode-Based Models,,1450,
Enhancing Oncology Model,Regional Cancer Care Associates LLC,,"40 Beylea Road, Suite A202, Toms River, NJ (39.990618, -74.201608)","40 Beylea Road, Suite A202",Toms River,NJ,FALSE,,,,,,,Disease-Specific & Episode-Based Models,,1451,
Enhancing Oncology Model,Regional Cancer Care Associates LLC,,"Hope Towers-19 Davis Avenue, 2nd Floor, Neptune, NJ (40.208996, -74.038456)","Hope Towers-19 Davis Avenue, 2nd Floor",Neptune,NJ,FALSE,,,,,,,Disease-Specific & Episode-Based Models,,1452,
Enhancing Oncology Model,Regional Cancer Care Associates LLC,,"211 North Main Street, Cape May Courthouse, NJ (39.085569, -74.821322)",211 North Main Street,Cape May Courthouse,NJ,FALSE,,,,,,,Disease-Specific & Episode-Based Models,,1453,
Enhancing Oncology Model,Regional Cancer Care Associates LLC,,"Hope Medical Commons, 210 S. Shore Road (Rt. 9), Suite 106, Marmora, NJ (39.259759, -74.652947)","Hope Medical Commons, 210 S. Shore Road (Rt. 9), Suite 106",Marmora,NJ,FALSE,,,,,,,Disease-Specific & Episode-Based Models,,1454,
Enhancing Oncology Model,Regional Cancer Care Associates LLC,,"350 Young Avenue, Suite 200, Moorestown, NJ (39.9709143, -74.9448839)","350 Young Avenue, Suite 200",Moorestown,NJ,FALSE,,,,,,,Disease-Specific & Episode-Based Models,,1455,
Enhancing Oncology Model,Regional Cancer Care Associates LLC,,"18 Newark-Pompton Turnpike, Riverdale, NJ (40.99613, -74.304554)",18 Newark-Pompton Turnpike,Riverdale,NJ,FALSE,,,,,,,Disease-Specific & Episode-Based Models,,1456,
Enhancing Oncology Model,Regional Cancer Care Associates LLC,,"89 Sparta Avenue, Suite 130, Sparta, NJ (41.040373, -74.644004)","89 Sparta Avenue, Suite 130",Sparta,NJ,FALSE,,,,,,,Disease-Specific & Episode-Based Models,,1457,
Enhancing Oncology Model,Regional Cancer Care Associates LLC,,"100 Haynes Street, 2nd Floor, Manchester, CT (41.780798, -72.526392)","100 Haynes Street, 2nd Floor",Manchester,CT,FALSE,,,,,,,Disease-Specific & Episode-Based Models,,1458,
Enhancing Oncology Model,Regional Cancer Care Associates LLC,,"345 North Main Street, Suite 318, West Hartford, CT (41.783238, -72.746784)","345 North Main Street, Suite 318",West Hartford,CT,FALSE,,,,,,,Disease-Specific & Episode-Based Models,,1459,
Enhancing Oncology Model,Christus St. Vincent Hospital,,"490 W. Zia Road, Santa Fe, NM (35.646015, -105.953334)",490 W. Zia Road,Santa Fe,NM,FALSE,,,,,,,Disease-Specific & Episode-Based Models,,1460,
Enhancing Oncology Model,Christus St. Vincent Hospital,,"465 St. Michael's Dr. Suite 110, Santa Fe, NM (35.659495, -105.947056)",465 St. Michael's Dr. Suite 110,Santa Fe,NM,FALSE,,,,,,,Disease-Specific & Episode-Based Models,,1461,
Enhancing Oncology Model,"Vidant Medical Group, LLC",,"113 Virginia Road, Edenton, NC (36.070631, -76.607512)",113 Virginia Road,Edenton,NC,FALSE,,,,,,,Disease-Specific & Episode-Based Models,,1462,
Enhancing Oncology Model,"Vidant Medical Group, LLC",,"401 N. Main Street, Kenansville, NC (34.964745, -77.960002)",401 N. Main Street,Kenansville,NC,FALSE,,,,,,,Disease-Specific & Episode-Based Models,,1463,
Enhancing Oncology Model,"Vidant Medical Group, LLC",,"313 Airport Road, Kinston, NC (35.296726, -77.585872)",313 Airport Road,Kinston,NC,FALSE,,,,,,,Disease-Specific & Episode-Based Models,,1464,
Enhancing Oncology Model,"Vidant Medical Group, LLC",,"250 Smith Church Road, Roanoke Rapids, NC (36.432013, -77.64563)",250 Smith Church Road,Roanoke Rapids,NC,FALSE,,,,,,,Disease-Specific & Episode-Based Models,,1465,
Enhancing Oncology Model,"Vidant Medical Group, LLC",,"500 S. Academy Street, Ahoskie, NC (36.285176, -76.994756)",500 S. Academy Street,Ahoskie,NC,FALSE,,,,,,,Disease-Specific & Episode-Based Models,,1466,
Enhancing Oncology Model,Mercy Clinic Joplin LLC,,"100 Mercy Way, Joplin, MO (37.036573, -94.509755)",100 Mercy Way,Joplin,MO,FALSE,,,,,,,Disease-Specific & Episode-Based Models,,1467,
Enhancing Oncology Model,Tennessee Oncology PLLC,,"1032 McCallie Avenue Suite 200, Chattanooga, TN (35.040877, -85.288927)",1032 McCallie Avenue Suite 200,Chattanooga,TN,FALSE,,,,,,,Disease-Specific & Episode-Based Models,,1468,
Enhancing Oncology Model,Tennessee Oncology PLLC,,"2390 N Ocoee St, Cleveland, TN (35.177262, -84.866022)",2390 N Ocoee St,Cleveland,TN,FALSE,,,,,,,Disease-Specific & Episode-Based Models,,1469,
Enhancing Oncology Model,Tennessee Oncology PLLC,,"397 Wallace Rd Suite 201, Nashville, TN (36.076311, -86.72346)",397 Wallace Rd Suite 201,Nashville,TN,FALSE,,,,,,,Disease-Specific & Episode-Based Models,,1470,
Enhancing Oncology Model,Tennessee Oncology PLLC,,"1208 Point Center Drive Suite 110, Chattanooga, TN (35.013012, -85.18702)",1208 Point Center Drive Suite 110,Chattanooga,TN,FALSE,,,,,,,Disease-Specific & Episode-Based Models,,1471,
Enhancing Oncology Model,Tennessee Oncology PLLC,,"2200 E 3rd St. Suite 100, Chattanooga, TN (35.03898, -85.267696)",2200 E 3rd St. Suite 100,Chattanooga,TN,FALSE,,,,,,,Disease-Specific & Episode-Based Models,,1472,
Enhancing Oncology Model,Tennessee Oncology PLLC,,"605 Glenwood Dr Suite 200, Chattnooga, TN (35.040372, -85.260081)",605 Glenwood Dr Suite 200,Chattnooga,TN,FALSE,,,,,,,Disease-Specific & Episode-Based Models,,1473,
Enhancing Oncology Model,Tennessee Oncology PLLC,,"225 Big Station Camp Blvd Suite 201, Gallatin, TN (36.357454, -86.537256)",225 Big Station Camp Blvd Suite 201,Gallatin,TN,FALSE,,,,,,,Disease-Specific & Episode-Based Models,,1474,
Enhancing Oncology Model,Tennessee Oncology PLLC,,"5073 Main St. Suite 210, Spring Hill, TN (35.767145, -86.919669)",5073 Main St. Suite 210,Spring Hill,TN,FALSE,,,,,,,Disease-Specific & Episode-Based Models,,1475,
Enhancing Oncology Model,Tennessee Oncology PLLC,,"776 Weatherly Drive Suite A, Clarksville, TN (36.574349, -87.288613)",776 Weatherly Drive Suite A,Clarksville,TN,FALSE,,,,,,,Disease-Specific & Episode-Based Models,,1476,
Enhancing Oncology Model,Illinois Cancer Specialists,,"8915 W. Gold Rd, Niles, IL (41.733, -87.572844)",8915 W. Gold Rd,Niles,IL,FALSE,,,,,,,Disease-Specific & Episode-Based Models,,1477,
Enhancing Oncology Model,Illinois Cancer Specialists,,"880 W. Central Road, Suite 8200, Arlington Heights, IL (42.066744, -87.995515)","880 W. Central Road, Suite 8200",Arlington Heights,IL,FALSE,,,,,,,Disease-Specific & Episode-Based Models,,1478,
Enhancing Oncology Model,Illinois Cancer Specialists,,"360 Station Dr, Suite 201, Crystal Lake, IL (42.357997, -88.164088)","360 Station Dr, Suite 201",Crystal Lake,IL,FALSE,,,,,,,Disease-Specific & Episode-Based Models,,1479,
Enhancing Oncology Model,Illinois Cancer Specialists,,"1710 N. Randall Rd, Suite 300, Elgin, IL (42.076007, -88.336582)","1710 N. Randall Rd, Suite 300",Elgin,IL,FALSE,,,,,,,Disease-Specific & Episode-Based Models,,1480,
Enhancing Oncology Model,Illinois Cancer Specialists,,"7447 W. Talcott Ave, Suite 1, Chicago, IL (41.988318, -87.814727)","7447 W. Talcott Ave, Suite 1",Chicago,IL,FALSE,,,,,,,Disease-Specific & Episode-Based Models,,1481,
Enhancing Oncology Model,Rocky Mountain Cancer Centers,,"1700 South Potomac St., Aurora, CO (39.685719, -104.83033)",1700 South Potomac St.,Aurora,CO,FALSE,,,,,,,Disease-Specific & Episode-Based Models,,1482,
Enhancing Oncology Model,Rocky Mountain Cancer Centers,,"4715 Arapahoe Avenue, Boulder, CO (40.015113, -105.236922)",4715 Arapahoe Avenue,Boulder,CO,FALSE,,,,,,,Disease-Specific & Episode-Based Models,,1483,
Enhancing Oncology Model,Rocky Mountain Cancer Centers,,"2312 N. Nevada Ave, Suite 400, Colorado Springs, CO (38.865945, -104.820051)","2312 N. Nevada Ave, Suite 400",Colorado Springs,CO,FALSE,,,,,,,Disease-Specific & Episode-Based Models,,1484,
Enhancing Oncology Model,Rocky Mountain Cancer Centers,,"14000 East Arapahoe Road, Suite 160, Centennial, CO (39.593887, -104.82564)","14000 East Arapahoe Road, Suite 160",Centennial,CO,FALSE,,,,,,,Disease-Specific & Episode-Based Models,,1485,
Enhancing Oncology Model,Rocky Mountain Cancer Centers,,"701 East Hampden Avenue, Suite 300, Englewood, CO (39.653365, -104.979354)","701 East Hampden Avenue, Suite 300",Englewood,CO,FALSE,,,,,,,Disease-Specific & Episode-Based Models,,1486,
Enhancing Oncology Model,Rocky Mountain Cancer Centers,,"11750 W 2nd Place, Ste 160, Lakewood, CO (39.716264, -105.129536)","11750 W 2nd Place, Ste 160",Lakewood,CO,FALSE,,,,,,,Disease-Specific & Episode-Based Models,,1487,
Enhancing Oncology Model,Rocky Mountain Cancer Centers,,"1800 Williams Street, Suite 200, Denver, CO (39.744658, -104.965976)","1800 Williams Street, Suite 200",Denver,CO,FALSE,,,,,,,Disease-Specific & Episode-Based Models,,1488,
Enhancing Oncology Model,Rocky Mountain Cancer Centers,,"8820 Huron Street, Thornton, CO (39.85698, -104.995882)",8820 Huron Street,Thornton,CO,FALSE,,,,,,,Disease-Specific & Episode-Based Models,,1489,
Enhancing Oncology Model,Rocky Mountain Cancer Centers,,"22 West Dry Creek Circle, Littleton, CO (39.581152, -104.992097)",22 West Dry Creek Circle,Littleton,CO,FALSE,,,,,,,Disease-Specific & Episode-Based Models,,1490,
Enhancing Oncology Model,Rocky Mountain Cancer Centers,,"4700 East Hale Parkway, Suite 400, Denver, CO (39.732558, -104.932006)","4700 East Hale Parkway, Suite 400",Denver,CO,FALSE,,,,,,,Disease-Specific & Episode-Based Models,,1491,
Enhancing Oncology Model,Rocky Mountain Cancer Centers,,"1760 E Ken Pratt Blvd, Suite 302, Longmont, CO (40.161925, -105.058271)","1760 E Ken Pratt Blvd, Suite 302",Longmont,CO,FALSE,,,,,,,Disease-Specific & Episode-Based Models,,1492,
Enhancing Oncology Model,Rocky Mountain Cancer Centers,,"10107 RidgeGate Parkway, Suite 200, Lone Tree, CO (39.530643, -104.870762)","10107 RidgeGate Parkway, Suite 200",Lone Tree,CO,FALSE,,,,,,,Disease-Specific & Episode-Based Models,,1493,
Enhancing Oncology Model,Rocky Mountain Cancer Centers,,"525 West 15th Street Suite 200, Pueblo, CO (38.281470, -104.614180)",525 West 15th Street Suite 200,Pueblo,CO,FALSE,,,,,,,Disease-Specific & Episode-Based Models,,1494,
Enhancing Oncology Model,Rocky Mountain Cancer Centers,,"6031 E. Woodmen Rd., Ste 200, Colorado Springs, CO (38.937669, -104.714382)","6031 E. Woodmen Rd., Ste 200",Colorado Springs,CO,FALSE,,,,,,,Disease-Specific & Episode-Based Models,,1495,
Enhancing Oncology Model,Tennessee Oncology PLLC,,"4488 Carothers Pkwy Suite 300, Franklin, TN (35.917581, -86.815067)",4488 Carothers Pkwy Suite 300,Franklin,TN,FALSE,,,,,,,Disease-Specific & Episode-Based Models,,1496,
Enhancing Oncology Model,Tennessee Oncology PLLC,,"2051 Hamill Rd, Hixson, TN (35.124471, -85.238114)",2051 Hamill Rd,Hixson,TN,FALSE,,,,,,,Disease-Specific & Episode-Based Models,,1497,
Enhancing Oncology Model,Tennessee Oncology PLLC,,"3443 Dickerson Rd Suite 760, Nashville, TN (36.240762, -86.757516)",3443 Dickerson Rd Suite 760,Nashville,TN,FALSE,,,,,,,Disease-Specific & Episode-Based Models,,1498,
Enhancing Oncology Model,Tennessee Oncology PLLC,,"103 Natchez Park Dr Suite 103, Dickson, TN (36.010131, -87.328834)",103 Natchez Park Dr Suite 103,Dickson,TN,FALSE,,,,,,,Disease-Specific & Episode-Based Models,,1499,
Enhancing Oncology Model,Tennessee Oncology PLLC,,"353 New Shackle Island Road Suite 204A, Hendersonville, TN (36.324968, -86.62162)",353 New Shackle Island Road Suite 204A,Hendersonville,TN,FALSE,,,,,,,Disease-Specific & Episode-Based Models,,1500,
Enhancing Oncology Model,Tennessee Oncology PLLC,,"518 Main St, Smithville, TN (35.959861, -85.804257)",518 Main St,Smithville,TN,FALSE,,,,,,,Disease-Specific & Episode-Based Models,,1501,
Enhancing Oncology Model,Tennessee Oncology PLLC,,"504 22nd Ave E, Springfield, TN (36.491117, -86.881205)",504 22nd Ave E,Springfield,TN,FALSE,,,,,,,Disease-Specific & Episode-Based Models,,1502,
Enhancing Oncology Model,Tennessee Oncology PLLC,,"5653 Frist Blvd Suite 434, Hermitage, TN (36.176899, -86.608473)",5653 Frist Blvd Suite 434,Hermitage,TN,FALSE,,,,,,,Disease-Specific & Episode-Based Models,,1503,
Enhancing Oncology Model,Tennessee Oncology PLLC,,"103 Physicians Way, Lebanon, TN (36.179817, -86.327166)",103 Physicians Way,Lebanon,TN,FALSE,,,,,,,Disease-Specific & Episode-Based Models,,1504,
Enhancing Oncology Model,Tennessee Oncology PLLC,,"2004 Hayes St. Suite 360, Nashville, TN (36.152239, -86.801255)",2004 Hayes St. Suite 360,Nashville,TN,FALSE,,,,,,,Disease-Specific & Episode-Based Models,,1505,
Enhancing Oncology Model,Tennessee Oncology PLLC,,"335 24th Ave N Suite 200, Nashville, TN (36.153605, -86.810745)",335 24th Ave N Suite 200,Nashville,TN,FALSE,,,,,,,Disease-Specific & Episode-Based Models,,1506,
Enhancing Oncology Model,Tennessee Oncology PLLC,,"2121 N Locust St, Lawrenceburg, TN (35.27175, -87.320515)",2121 N Locust St,Lawrenceburg,TN,FALSE,,,,,,,Disease-Specific & Episode-Based Models,,1507,
Enhancing Oncology Model,Tennessee Oncology PLLC,,"1589 Sparta St Suite 203, McMinnville, TN (35.700198, -85.74249)",1589 Sparta St Suite 203,McMinnville,TN,FALSE,,,,,,,Disease-Specific & Episode-Based Models,,1508,
Enhancing Oncology Model,Tennessee Oncology PLLC,,"250 25th Ave N Suite 412, Nashville, TN (36.152911, -86.811878)",250 25th Ave N Suite 412,Nashville,TN,FALSE,,,,,,,Disease-Specific & Episode-Based Models,,1509,
Enhancing Oncology Model,Tennessee Oncology PLLC,,"1840 Medical Center Pkwy Suite 300, Murfreesboro, TN (35.860762, -86.426387)",1840 Medical Center Pkwy Suite 300,Murfreesboro,TN,FALSE,,,,,,,Disease-Specific & Episode-Based Models,,1510,
Enhancing Oncology Model,"Vidant Medical Group, LLC",,"105 Hospital Drive, Tarboro, NC (35.919766, -77.558171)",105 Hospital Drive,Tarboro,NC,FALSE,,,,,,,Disease-Specific & Episode-Based Models,,1511,
Enhancing Oncology Model,Tennessee Oncology PLLC,,"2004 Hayes St Suite 350, Nashville, TN (36.152239, -86.801255)",2004 Hayes St Suite 350,Nashville,TN,FALSE,,,,,,,Disease-Specific & Episode-Based Models,,1512,
Enhancing Oncology Model,Tennessee Oncology PLLC,,"250 25th Ave N Suite 100, Nashville, TN (36.154094, -86.809406)",250 25th Ave N Suite 100,Nashville,TN,FALSE,,,,,,,Disease-Specific & Episode-Based Models,,1513,
Enhancing Oncology Model,Tennessee Oncology PLLC,,"4645 Battlefield Pkwy, Ringgold, GA (34.933915, -85.187034)",4645 Battlefield Pkwy,Ringgold,GA,FALSE,,,,,,,Disease-Specific & Episode-Based Models,,1514,
Enhancing Oncology Model,Tennessee Oncology PLLC,,"120 Frank Martin Rd, Shelbyville, TN (35.567178, -86.451655)",120 Frank Martin Rd,Shelbyville,TN,FALSE,,,,,,,Disease-Specific & Episode-Based Models,,1515,
Enhancing Oncology Model,Tennessee Oncology PLLC,,"300 Stonecrest Blvd Suite 400, Smyrna, TN (35.974389, -86.566165)",300 Stonecrest Blvd Suite 400,Smyrna,TN,FALSE,,,,,,,Disease-Specific & Episode-Based Models,,1516,
Enhancing Oncology Model,Tennessee Oncology PLLC,,"1750 Cedar Ln Suite 200, Tullahoma, TN (35.382386, -86.23381)",1750 Cedar Ln Suite 200,Tullahoma,TN,FALSE,,,,,,,Disease-Specific & Episode-Based Models,,1517,
Enhancing Oncology Model,Tennessee Oncology PLLC,,"4220 Harding Rd Suite 200, Nashville, TN (36.129352, -86.844694)",4220 Harding Rd Suite 200,Nashville,TN,FALSE,,,,,,,Disease-Specific & Episode-Based Models,,1518,
Enhancing Oncology Model,Trinity Health IHA Medical Group Hematology Oncology,,"7575 Grand River Avenue, Brighton, MI (42.564901, -83.799556)",7575 Grand River Avenue,Brighton,MI,FALSE,,,,,,,Disease-Specific & Episode-Based Models,,1519,
Enhancing Oncology Model,Trinity Health IHA Medical Group Hematology Oncology,,"1600 S. Canton Center Rd., Canton, MI (42.29782, -83.486729)",1600 S. Canton Center Rd.,Canton,MI,FALSE,,,,,,,Disease-Specific & Episode-Based Models,,1520,
Enhancing Oncology Model,Trinity Health IHA Medical Group Hematology Oncology,,"775 S. Main St., Chelsea, MI (42.310439, -84.016569)",775 S. Main St.,Chelsea,MI,FALSE,,,,,,,Disease-Specific & Episode-Based Models,,1521,
Enhancing Oncology Model,Trinity Health IHA Medical Group Hematology Oncology,,"5303 Elliot Drive, Suite 210, Ypsilanti, MI (42.2646392, -83.6577826)","5303 Elliot Drive, Suite 210",Ypsilanti,MI,FALSE,,,,,,,Disease-Specific & Episode-Based Models,,1522,
Enhancing Oncology Model,Prisma Health dba Prisma Health University Medical Group,,"200 Fleetwood Dr., Ste 200, Easley, SC (34.84066, -82.60679)","200 Fleetwood Dr., Ste 200",Easley,SC,FALSE,,,,,,,Disease-Specific & Episode-Based Models,,1523,
Enhancing Oncology Model,Prisma Health dba Prisma Health University Medical Group,,"900 W. Faris Rd, Greenville, SC (34.817709, -82.411051)",900 W. Faris Rd,Greenville,SC,FALSE,,,,,,,Disease-Specific & Episode-Based Models,,1524,
Enhancing Oncology Model,Prisma Health dba Prisma Health University Medical Group,,"65 International Dr., Greenville, SC (34.847412, -82.319789)",65 International Dr.,Greenville,SC,FALSE,,,,,,,Disease-Specific & Episode-Based Models,,1525,
Enhancing Oncology Model,Prisma Health dba Prisma Health University Medical Group,,"340 Medical Pkwy, Greer, SC (34.919033, -82.243518)",340 Medical Pkwy,Greer,SC,FALSE,,,,,,,Disease-Specific & Episode-Based Models,,1526,
Enhancing Oncology Model,Prisma Health dba Prisma Health University Medical Group,,"131 Lila Doyle Dr., Seneca, SC (34.693633, -82.985287)",131 Lila Doyle Dr.,Seneca,SC,FALSE,,,,,,,Disease-Specific & Episode-Based Models,,1527,
Enhancing Oncology Model,Prisma Health dba Prisma Health University Medical Group,,"130 N. Washington St., Sumter, SC (33.923542, -80.344579)",130 N. Washington St.,Sumter,SC,FALSE,,,,,,,Disease-Specific & Episode-Based Models,,1528,
Enhancing Oncology Model,Prisma Health dba Prisma Health University Medical Group,,"3 Butternut Dr., Ste B, Greenville, SC (34.814362, -82.420141)","3 Butternut Dr., Ste B",Greenville,SC,FALSE,,,,,,,Disease-Specific & Episode-Based Models,,1529,
Enhancing Oncology Model,Prisma Health dba Prisma Health University Medical Group,,"340 Medical Parkway, Ste 200, Greer, SC (34.919033, -82.243518)","340 Medical Parkway, Ste 200",Greer,SC,FALSE,,,,,,,Disease-Specific & Episode-Based Models,,1530,
Enhancing Oncology Model,Prisma Health dba Prisma Health University Medical Group,,"22725 Hwy 76 E., 3rd Flr, Clinton, SC (34.481542, -81.940423)","22725 Hwy 76 E., 3rd Flr",Clinton,SC,FALSE,,,,,,,Disease-Specific & Episode-Based Models,,1531,
Enhancing Oncology Model,Prisma Health dba Prisma Health University Medical Group,,"890 W. Faris Rd., Ste 320, Greenville, SC (34.817546, -82.410508)","890 W. Faris Rd., Ste 320",Greenville,SC,FALSE,,,,,,,Disease-Specific & Episode-Based Models,,1532,
Enhancing Oncology Model,Prisma Health dba Prisma Health University Medical Group,,"2400 Boiling Springs Rd., Spartanburg, SC (35.027285, -81.965004)",2400 Boiling Springs Rd.,Spartanburg,SC,FALSE,,,,,,,Disease-Specific & Episode-Based Models,,1533,
Enhancing Oncology Model,Prisma Health dba Prisma Health University Medical Group,,"48 Centennial Way, Ste A, Greenville, SC (34.811368, -82.415389)","48 Centennial Way, Ste A",Greenville,SC,FALSE,,,,,,,Disease-Specific & Episode-Based Models,,1534,
Enhancing Oncology Model,Prisma Health dba Prisma Health University Medical Group,,"135 Professional Park Dr., Seneca, SC (34.694717, -82.96998)",135 Professional Park Dr.,Seneca,SC,FALSE,,,,,,,Disease-Specific & Episode-Based Models,,1535,
Enhancing Oncology Model,"Starling Physicians, PLLC",,"1260 Silas Deane Highway, Wethersfield, CT (41.687287, -72.654376)",1260 Silas Deane Highway,Wethersfield,CT,FALSE,,,,,,,Disease-Specific & Episode-Based Models,,1536,
Enhancing Oncology Model,"Starling Physicians, PLLC",,"300 Kensington Ave, New Britain, CT (41.647799, -72.786677)",300 Kensington Ave,New Britain,CT,FALSE,,,,,,,Disease-Specific & Episode-Based Models,,1537,
Enhancing Oncology Model,"Starling Physicians, PLLC",,"160 Hazard Avenue, Enfield, CT (41.98733, -72.55711)",160 Hazard Avenue,Enfield,CT,FALSE,,,,,,,Disease-Specific & Episode-Based Models,,1538,
Enhancing Oncology Model,The Oncology Institute CA a Professional Corporation,,"11480 Brookshire Ave., Suite 309, Downey, CA (33.936075, -118.131082)","11480 Brookshire Ave., Suite 309",Downey,CA,FALSE,,,,,,,Disease-Specific & Episode-Based Models,,1539,
Enhancing Oncology Model,The Oncology Institute CA a Professional Corporation,,"1411 S. Garfield Ave., Suite 306, Alhambra, CA (34.077868, -118.123399)","1411 S. Garfield Ave., Suite 306",Alhambra,CA,FALSE,,,,,,,Disease-Specific & Episode-Based Models,,1540,
Enhancing Oncology Model,The Oncology Institute CA a Professional Corporation,,"2601 W. Alameda Ave., Suite 300, Burbank, CA (34.158373, -118.329691)","2601 W. Alameda Ave., Suite 300",Burbank,CA,FALSE,,,,,,,Disease-Specific & Episode-Based Models,,1541,
Enhancing Oncology Model,The Oncology Institute CA a Professional Corporation,,"450 4th Ave. , Suite 311, Chula Vista, CA (32.63496, -117.0827)","450 4th Ave. , Suite 311",Chula Vista,CA,FALSE,,,,,,,Disease-Specific & Episode-Based Models,,1542,
Enhancing Oncology Model,The Oncology Institute CA a Professional Corporation,,"1127 Wilshire Blvd., Suite 900, Los Angeles, CA (34.052875, -118.264159)","1127 Wilshire Blvd., Suite 900",Los Angeles,CA,FALSE,,,,,,,Disease-Specific & Episode-Based Models,,1543,
Enhancing Oncology Model,The Oncology Institute CA a Professional Corporation,,"900 S. Main St., Suite 204, Corona, CA (33.871952, -117.567198)","900 S. Main St., Suite 204",Corona,CA,FALSE,,,,,,,Disease-Specific & Episode-Based Models,,1544,
Enhancing Oncology Model,The Oncology Institute CA a Professional Corporation,,"9808 Venice Blvd., Suite 603, Culver City, CA (34.023497, -118.398028)","9808 Venice Blvd., Suite 603",Culver City,CA,FALSE,,,,,,,Disease-Specific & Episode-Based Models,,1545,
Enhancing Oncology Model,The Oncology Institute CA a Professional Corporation,,"1513 S. Grand Ave., Suite 360, Los Angeles, CA (34.03622, -118.26632)","1513 S. Grand Ave., Suite 360",Los Angeles,CA,FALSE,,,,,,,Disease-Specific & Episode-Based Models,,1546,
Enhancing Oncology Model,The Oncology Institute CA a Professional Corporation,,"1701 E. Cesar Chavez Ave., Suite 535, Los Angeles, CA (34.040791, -118.15327)","1701 E. Cesar Chavez Ave., Suite 535",Los Angeles,CA,FALSE,,,,,,,Disease-Specific & Episode-Based Models,,1547,
Enhancing Oncology Model,The Oncology Institute CA a Professional Corporation,,"11100 Warner Ave., Suite 214, Fountain Valley, CA (33.715754, -117.936524)","11100 Warner Ave., Suite 214",Fountain Valley,CA,FALSE,,,,,,,Disease-Specific & Episode-Based Models,,1548,
Enhancing Oncology Model,The Oncology Institute CA a Professional Corporation,,"1510 S. Central Ave., Suite 240, Glendale, CA (34.127495, -118.257645)","1510 S. Central Ave., Suite 240",Glendale,CA,FALSE,,,,,,,Disease-Specific & Episode-Based Models,,1549,
Enhancing Oncology Model,The Oncology Institute CA a Professional Corporation,,"3965 5th Ave., Suite 230, San Diego, CA (32.749212, -117.160198)","3965 5th Ave., Suite 230",San Diego,CA,FALSE,,,,,,,Disease-Specific & Episode-Based Models,,1550,
Enhancing Oncology Model,The Oncology Institute CA a Professional Corporation,,"16404 Colima Rd., Hacienda Heights, CA (33.985872, -117.953601)",16404 Colima Rd.,Hacienda Heights,CA,FALSE,,,,,,,Disease-Specific & Episode-Based Models,,1551,
Enhancing Oncology Model,The Oncology Institute CA a Professional Corporation,,"1001 S. State St., Suite A, Hemet, CA (33.731527, -116.972162)","1001 S. State St., Suite A",Hemet,CA,FALSE,,,,,,,Disease-Specific & Episode-Based Models,,1552,
Enhancing Oncology Model,The Oncology Institute CA a Professional Corporation,,"3300 E. South St., Suite 304, Long Beach, CA (33.859575, -118.153886)","3300 E. South St., Suite 304",Long Beach,CA,FALSE,,,,,,,Disease-Specific & Episode-Based Models,,1553,
Enhancing Oncology Model,The Oncology Institute CA a Professional Corporation,,"3851 Katella Ave., Suite 355, Los Alamitos, CA (33.80366, -118.064723)","3851 Katella Ave., Suite 355",Los Alamitos,CA,FALSE,,,,,,,Disease-Specific & Episode-Based Models,,1554,
Enhancing Oncology Model,The Oncology Institute CA a Professional Corporation,,"3628 E. Imperial Hwy., Suite 401, Lynwood, CA (33.930472, -118.204323)","3628 E. Imperial Hwy., Suite 401",Lynwood,CA,FALSE,,,,,,,Disease-Specific & Episode-Based Models,,1555,
Enhancing Oncology Model,The Oncology Institute CA a Professional Corporation,,"207 S. Santa Anita St., Suite P-05, San Gabriel, CA (34.100434, -118.106847)","207 S. Santa Anita St., Suite P-05",San Gabriel,CA,FALSE,,,,,,,Disease-Specific & Episode-Based Models,,1556,
Enhancing Oncology Model,The Oncology Institute CA a Professional Corporation,,"11550 Indian Hills Rd., Suite 360, Mission Hills, CA (34.279981, -118.45875)","11550 Indian Hills Rd., Suite 360",Mission Hills,CA,FALSE,,,,,,,Disease-Specific & Episode-Based Models,,1557,
Enhancing Oncology Model,The Oncology Institute CA a Professional Corporation,,"25405 Hancock Ave., Suite 203, Murrieta, CA (33.557939, -117.185445)","25405 Hancock Ave., Suite 203",Murrieta,CA,FALSE,,,,,,,Disease-Specific & Episode-Based Models,,1558,
Enhancing Oncology Model,The Oncology Institute CA a Professional Corporation,,"18433 Roscoe Blvd., Suite 106, Northridge, CA (34.220915, -118.534701)","18433 Roscoe Blvd., Suite 106",Northridge,CA,FALSE,,,,,,,Disease-Specific & Episode-Based Models,,1559,
Enhancing Oncology Model,The Oncology Institute CA a Professional Corporation,,"26732 Crown Valley Pkwy., Suite 271, Mission Viejo, CA (33.562721, -117.665236)","26732 Crown Valley Pkwy., Suite 271",Mission Viejo,CA,FALSE,,,,,,,Disease-Specific & Episode-Based Models,,1560,
Enhancing Oncology Model,The Oncology Institute CA a Professional Corporation,,"101 E. Beverly Blvd., Suite 200, Montebello, CA (34.014827, -118.098443)","101 E. Beverly Blvd., Suite 200",Montebello,CA,FALSE,,,,,,,Disease-Specific & Episode-Based Models,,1561,
Enhancing Oncology Model,The Oncology Institute CA a Professional Corporation,,"120 W. Hellman Ave., Suite 202, Monterey Park, CA (34.069647, -118.124175)","120 W. Hellman Ave., Suite 202",Monterey Park,CA,FALSE,,,,,,,Disease-Specific & Episode-Based Models,,1562,
Enhancing Oncology Model,The Oncology Institute CA a Professional Corporation,,"50 Bellefontaine St., Suite 401, Pasadena, CA (34.131317, -118.151675)","50 Bellefontaine St., Suite 401",Pasadena,CA,FALSE,,,,,,,Disease-Specific & Episode-Based Models,,1563,
Enhancing Oncology Model,Trinity Health IHA Medical Group Hematology Oncology,,"14555 Levan Rd., Suite 112, Livonia, MI (42.390244, -83.402784)","14555 Levan Rd., Suite 112",Livonia,MI,FALSE,,,,,,,Disease-Specific & Episode-Based Models,,1564,
Enhancing Oncology Model,University Medical Associates of the Medical University of South Carolina,,"86 Jonathan Lucas St, Charleston, SC (32.78313, -79.947577)",86 Jonathan Lucas St,Charleston,SC,FALSE,,,,,,,Disease-Specific & Episode-Based Models,,1565,
Enhancing Oncology Model,MUSC Community Physicians,,"805 Pamplico Hwy, Ste 315, Medical Mall A, Florence, SC (34.160092, -79.752058)","805 Pamplico Hwy, Ste 315, Medical Mall A",Florence,SC,FALSE,,,,,,,Disease-Specific & Episode-Based Models,,1566,
Enhancing Oncology Model,MUSC Community Physicians,,"1161 Cook Road, Orangeburg, SC (33.539575, -80.828038)",1161 Cook Road,Orangeburg,SC,FALSE,,,,,,,Disease-Specific & Episode-Based Models,,1567,
Enhancing Oncology Model,Tennessee Oncology PLLC,,"1504 N Thornton Ave Suite 102, Dalton, GA (34.793684, -84.982275)",1504 N Thornton Ave Suite 102,Dalton,GA,FALSE,,,,,,,Disease-Specific & Episode-Based Models,,1568,
Enhancing Oncology Model,MUSC Community Physicians,,"1315 Roberts Street, Camden, SC (34.252355, -80.589497)",1315 Roberts Street,Camden,SC,FALSE,,,,,,,Disease-Specific & Episode-Based Models,,1569,
Enhancing Oncology Model,Tennessee Oncology PLLC,,"315 N Washington Ave Suite 230, Cookeville, TN (36.166246, -85.497246)",315 N Washington Ave Suite 230,Cookeville,TN,FALSE,,,,,,,Disease-Specific & Episode-Based Models,,1570,
Enhancing Oncology Model,"Minnesota Oncology Hematology, P. A.",,"2651 Hillcrest Drive, Suite 105, Hudson, WI (44.969285, -92.719026)","2651 Hillcrest Drive, Suite 105",Hudson,WI,FALSE,,,,,,,Disease-Specific & Episode-Based Models,,1571,
Enhancing Oncology Model,Cancer and Hematology Centers of Western Michigan,,"15100 220th Ave, Big Rapids, MI (43.687979, -85.525876)",15100 220th Ave,Big Rapids,MI,FALSE,,,,,,,Disease-Specific & Episode-Based Models,,1572,
Enhancing Oncology Model,"Minnesota Oncology Hematology, P. A.",,"10150 Niagara Lane N, Suite 100, Maple Grove, MN (45.125343, -93.471852)","10150 Niagara Lane N, Suite 100",Maple Grove,MN,FALSE,,,,,,,Disease-Specific & Episode-Based Models,,1573,
